{"type":"FeatureCollection","name":"mudeungsan-osm-peaks","features":[{"type":"Feature","properties":{"slot":"mudeungsan_osm_peak","source":"openStreetMap","name":"무등산(천왕봉)","ele":"1186.8","sourceIndex":"3"},"geometry":{"type":"Point","coordinates":[127.0085732,35.1250388]}},{"type":"Feature","properties":{"slot":"mudeungsan_osm_peak","source":"openStreetMap","name":"서석대","ele":"1100","sourceIndex":"4"},"geometry":{"type":"Point","coordinates":[127.0026632,35.1209178]}},{"type":"Feature","properties":{"slot":"mudeungsan_osm_peak","source":"openStreetMap","name":"대동산","ele":"602","sourceIndex":"5"},"geometry":{"type":"Point","coordinates":[127.0088969,35.0813573]}},{"type":"Feature","properties":{"slot":"mudeungsan_osm_peak","source":"openStreetMap","name":"덕봉","ele":"472","sourceIndex":"6"},"geometry":{"type":"Point","coordinates":[126.9712459,35.1639371]}},{"type":"Feature","properties":{"slot":"mudeungsan_osm_peak","source":"openStreetMap","name":"중봉","ele":"915","sourceIndex":"9"},"geometry":{"type":"Point","coordinates":[126.9925349,35.1225658]}},{"type":"Feature","properties":{"slot":"mudeungsan_osm_peak","source":"openStreetMap","name":"가운데등","ele":"398","sourceIndex":"10"},"geometry":{"type":"Point","coordinates":[126.9608131,35.1406793]}},{"type":"Feature","properties":{"slot":"mudeungsan_osm_peak","source":"openStreetMap","name":"평두봉","ele":"351","sourceIndex":"11"},"geometry":{"type":"Point","coordinates":[126.9615428,35.1435673]}},{"type":"Feature","properties":{"slot":"mudeungsan_osm_peak","source":"openStreetMap","name":"윤필봉","ele":"404","sourceIndex":"12"},"geometry":{"type":"Point","coordinates":[126.9961836,35.1538838]}},{"type":"Feature","properties":{"slot":"mudeungsan_osm_peak","source":"openStreetMap","name":"장군봉","ele":"","sourceIndex":"13"},"geometry":{"type":"Point","coordinates":[126.968038,35.136721]}},{"type":"Feature","properties":{"slot":"mudeungsan_osm_peak","source":"openStreetMap","name":"안장등","ele":"317","sourceIndex":"15"},"geometry":{"type":"Point","coordinates":[126.9590056,35.1151476]}},{"type":"Feature","properties":{"slot":"mudeungsan_osm_peak","source":"openStreetMap","name":"배나무등","ele":"373","sourceIndex":"16"},"geometry":{"type":"Point","coordinates":[126.9582331,35.0980455]}},{"type":"Feature","properties":{"slot":"mudeungsan_osm_peak","source":"openStreetMap","name":"핑매등","ele":"418","sourceIndex":"17"},"geometry":{"type":"Point","coordinates":[126.9635305,35.1075208]}},{"type":"Feature","properties":{"slot":"mudeungsan_osm_peak","source":"openStreetMap","name":"매봉","ele":"364.4","sourceIndex":"18"},"geometry":{"type":"Point","coordinates":[126.9479978,35.1102723]}},{"type":"Feature","properties":{"slot":"mudeungsan_osm_peak","source":"openStreetMap","name":"서인봉","ele":"611","sourceIndex":"19"},"geometry":{"type":"Point","coordinates":[126.9810641,35.1174163]}},{"type":"Feature","properties":{"slot":"mudeungsan_osm_peak","source":"openStreetMap","name":"신선대","ele":"777","sourceIndex":"20"},"geometry":{"type":"Point","coordinates":[127.022987,35.1403291]}},{"type":"Feature","properties":{"slot":"mudeungsan_osm_peak","source":"openStreetMap","name":"무지개등","ele":"363","sourceIndex":"21"},"geometry":{"type":"Point","coordinates":[126.9720116,35.0903358]}},{"type":"Feature","properties":{"slot":"mudeungsan_osm_peak","source":"openStreetMap","name":"바랑산","ele":"315.7","sourceIndex":"44"},"geometry":{"type":"Point","coordinates":[126.9423417,35.1148639]}},{"type":"Feature","properties":{"slot":"mudeungsan_osm_peak","source":"openStreetMap","name":"벌매산","ele":"184.3","sourceIndex":"45"},"geometry":{"type":"Point","coordinates":[126.93182,35.11444]}},{"type":"Feature","properties":{"slot":"mudeungsan_osm_peak","source":"openStreetMap","name":"성적등","ele":"447","sourceIndex":"48"},"geometry":{"type":"Point","coordinates":[126.97582,35.11319]}},{"type":"Feature","properties":{"slot":"mudeungsan_osm_peak","source":"openStreetMap","name":"마집봉","ele":"472.7","sourceIndex":"50"},"geometry":{"type":"Point","coordinates":[126.9679222,35.1110139]}},{"type":"Feature","properties":{"slot":"mudeungsan_osm_peak","source":"openStreetMap","name":"낙타봉","ele":"929.5","sourceIndex":"57"},"geometry":{"type":"Point","coordinates":[127.00727,35.10934]}},{"type":"Feature","properties":{"slot":"mudeungsan_osm_peak","source":"openStreetMap","name":"수박등","ele":"465","sourceIndex":"61"},"geometry":{"type":"Point","coordinates":[126.95912,35.10695]}},{"type":"Feature","properties":{"slot":"mudeungsan_osm_peak","source":"openStreetMap","name":"부엉산","ele":"269.4","sourceIndex":"62"},"geometry":{"type":"Point","coordinates":[126.94512,35.10651]}},{"type":"Feature","properties":{"slot":"mudeungsan_osm_peak","source":"openStreetMap","name":"갈미봉","ele":"313.8","sourceIndex":"89"},"geometry":{"type":"Point","coordinates":[126.9444417,35.0836139]}},{"type":"Feature","properties":{"slot":"mudeungsan_osm_peak","source":"openStreetMap","name":"배나무등","ele":"373","sourceIndex":"102"},"geometry":{"type":"Point","coordinates":[126.9582,35.09808]}},{"type":"Feature","properties":{"slot":"mudeungsan_osm_peak","source":"openStreetMap","name":"수레바위산","ele":"621.5","sourceIndex":"107"},"geometry":{"type":"Point","coordinates":[126.9885861,35.0949556]}},{"type":"Feature","properties":{"slot":"mudeungsan_osm_peak","source":"openStreetMap","name":"만연산","ele":"666.3","sourceIndex":"108"},"geometry":{"type":"Point","coordinates":[126.9927692,35.0931205]}},{"type":"Feature","properties":{"slot":"mudeungsan_osm_peak","source":"openStreetMap","name":"지장산","ele":"392.4","sourceIndex":"111"},"geometry":{"type":"Point","coordinates":[126.9683,35.08999]}},{"type":"Feature","properties":{"slot":"mudeungsan_osm_peak","source":"openStreetMap","name":"계봉","ele":"255.7","sourceIndex":"112"},"geometry":{"type":"Point","coordinates":[126.9354361,35.0891444]}},{"type":"Feature","properties":{"slot":"mudeungsan_osm_peak","source":"openStreetMap","name":"비례실","ele":"180","sourceIndex":"113"},"geometry":{"type":"Point","coordinates":[126.95468,35.08845]}},{"type":"Feature","properties":{"slot":"mudeungsan_osm_peak","source":"openStreetMap","name":"지장산","ele":"355.9","sourceIndex":"115"},"geometry":{"type":"Point","coordinates":[126.9637056,35.0874306]}},{"type":"Feature","properties":{"slot":"mudeungsan_osm_peak","source":"openStreetMap","name":"안양산","ele":"853.1","sourceIndex":"117"},"geometry":{"type":"Point","coordinates":[127.0192472,35.1006111]}},{"type":"Feature","properties":{"slot":"mudeungsan_osm_peak","source":"openStreetMap","name":"꼬피등","ele":"330","sourceIndex":"118"},"geometry":{"type":"Point","coordinates":[126.96227,35.12832]}},{"type":"Feature","properties":{"slot":"mudeungsan_osm_peak","source":"openStreetMap","name":"인왕봉","ele":"1178","sourceIndex":"120"},"geometry":{"type":"Point","coordinates":[127.00674,35.12418]}},{"type":"Feature","properties":{"slot":"mudeungsan_osm_peak","source":"openStreetMap","name":"자주봉","ele":"349.7","sourceIndex":"121"},"geometry":{"type":"Point","coordinates":[126.9483111,35.1244306]}},{"type":"Feature","properties":{"slot":"mudeungsan_osm_peak","source":"openStreetMap","name":"의상봉","ele":"546.6","sourceIndex":"125"},"geometry":{"type":"Point","coordinates":[126.9957647,35.1437309]}},{"type":"Feature","properties":{"slot":"mudeungsan_osm_peak","source":"openStreetMap","name":"깃대봉","ele":"219.4","sourceIndex":"126"},"geometry":{"type":"Point","coordinates":[126.9380056,35.1431167]}},{"type":"Feature","properties":{"slot":"mudeungsan_osm_peak","source":"openStreetMap","name":"운소봉","ele":"495.9","sourceIndex":"127"},"geometry":{"type":"Point","coordinates":[126.9670611,35.1216417]}},{"type":"Feature","properties":{"slot":"mudeungsan_osm_peak","source":"openStreetMap","name":"새인봉","ele":"487","sourceIndex":"128"},"geometry":{"type":"Point","coordinates":[126.96907,35.12065]}},{"type":"Feature","properties":{"slot":"mudeungsan_osm_peak","source":"openStreetMap","name":"서인봉","ele":"611","sourceIndex":"132"},"geometry":{"type":"Point","coordinates":[126.9810778,35.1174056]}},{"type":"Feature","properties":{"slot":"mudeungsan_osm_peak","source":"openStreetMap","name":"장군봉","ele":"344.1","sourceIndex":"133"},"geometry":{"type":"Point","coordinates":[126.9537783,35.1179532]}},{"type":"Feature","properties":{"slot":"mudeungsan_osm_peak","source":"openStreetMap","name":"향로봉","ele":"365.9","sourceIndex":"136"},"geometry":{"type":"Point","coordinates":[126.9544161,35.142265]}},{"type":"Feature","properties":{"slot":"mudeungsan_osm_peak","source":"openStreetMap","name":"북산","ele":"778.1","sourceIndex":"137"},"geometry":{"type":"Point","coordinates":[127.0243028,35.1411472]}},{"type":"Feature","properties":{"slot":"mudeungsan_osm_peak","source":"openStreetMap","name":"낙타봉","ele":"545.2","sourceIndex":"138"},"geometry":{"type":"Point","coordinates":[126.97128,35.14019]}},{"type":"Feature","properties":{"slot":"mudeungsan_osm_peak","source":"openStreetMap","name":"누에봉","ele":"1061","sourceIndex":"142"},"geometry":{"type":"Point","coordinates":[127.01027,35.13102]}},{"type":"Feature","properties":{"slot":"mudeungsan_osm_peak","source":"openStreetMap","name":"토끼등","ele":"459","sourceIndex":"143"},"geometry":{"type":"Point","coordinates":[126.9769,35.13129]}},{"type":"Feature","properties":{"slot":"mudeungsan_osm_peak","source":"openStreetMap","name":"안산","ele":"259.8","sourceIndex":"144"},"geometry":{"type":"Point","coordinates":[126.9543833,35.1311222]}},{"type":"Feature","properties":{"slot":"mudeungsan_osm_peak","source":"openStreetMap","name":"장원봉","ele":"387.5","sourceIndex":"146"},"geometry":{"type":"Point","coordinates":[126.9493361,35.1543444]}},{"type":"Feature","properties":{"slot":"mudeungsan_osm_peak","source":"openStreetMap","name":"원효봉","ele":"560.9","sourceIndex":"149"},"geometry":{"type":"Point","coordinates":[126.98179,35.15112]}},{"type":"Feature","properties":{"slot":"mudeungsan_osm_peak","source":"openStreetMap","name":"입석대","ele":"","sourceIndex":"173"},"geometry":{"type":"Point","coordinates":[127.0023593,35.117553]}}]}