{"type":"FeatureCollection","features":[{"type":"Feature","properties":{"layerId":"boundary","semanticType":"boundary","sourceCode":"N3A_G0100000","sourceUfid":"100035611100G01010100000000000065","name":"광산구"},"geometry":{"type":"Polygon","coordinates":[[[126.75523835249159,35.242250317471346],[126.75493056980032,35.24211974519989],[126.75480599570521,35.24187505780274],[126.75507108347757,35.24141681636144],[126.75516710446028,35.2412208802281],[126.75517820372541,35.24095502612146],[126.75480591053439,35.24081451546945],[126.75490536925938,35.24052473913845],[126.75460887827771,35.23968689854586],[126.75452019871364,35.23900823371946],[126.75428659638429,35.238121235660515],[126.75425782183403,35.238031394115325],[126.7537822283829,35.237096543673225],[126.75401835121131,35.23641241441005],[126.75444367142401,35.235408486971465],[126.75522112288695,35.23439777499143],[126.75595875891223,35.23403900800855],[126.75708277646005,35.23371144540352],[126.7592152805913,35.23355611271525],[126.76035671332355,35.233930293188415],[126.76135611266774,35.233628807481836],[126.76219397021268,35.233579684983724],[126.76288991319399,35.23325371853805],[126.76384741765449,35.2326701715948],[126.76412503063403,35.23259468813681],[126.7643436154183,35.232618461582106],[126.76463185141041,35.23273135921786],[126.76495310556454,35.2327325278929],[126.7657404687457,35.23258623499787],[126.76652999848241,35.232476202317166],[126.76678977342343,35.23214350638664],[126.76725053017314,35.2318722213962],[126.7675104428451,35.23190704689313],[126.76798661815302,35.231835813600306],[126.76836448790817,35.231855947992194],[126.76832745210301,35.23222202815276],[126.76848239915473,35.23241850314181],[126.76999897885817,35.2327305180538],[126.77031773893476,35.23282086473081],[126.77068381960396,35.23232742123088],[126.77084410005517,35.23207001447593],[126.77158710465798,35.23113461848718],[126.7719007569679,35.23089213088268],[126.77202809750169,35.23084918039775],[126.77277071026126,35.23082773621738],[126.77320376448151,35.2307230150685],[126.773551010806,35.230473312987336],[126.7749615555989,35.23049286190868],[126.77506581090064,35.230529957719526],[126.77535298926264,35.23056752922776],[126.77606531035183,35.22988398313404],[126.77627857571359,35.22960091727731],[126.77641965601323,35.22944201086155],[126.77650056246485,35.22921787103816],[126.77676985217019,35.22877423598714],[126.77713878161471,35.22831018877856],[126.77747641379037,35.22806935349511],[126.77757605619968,35.227945908685534],[126.77779389902582,35.2277563442167],[126.77781897859197,35.2276157722128],[126.77843989621313,35.227188023678124],[126.77860748278403,35.22703808658083],[126.7787586249146,35.226851408538984],[126.77896198573093,35.22676986959862],[126.77951121958186,35.22636939183425],[126.77972130937165,35.22604273483863],[126.78002468599661,35.22578994846196],[126.78019786243281,35.22567805744376],[126.78044158021356,35.22559079399231],[126.78055802571356,35.225510894280674],[126.78060688050665,35.22543876747768],[126.7806917801053,35.22537373832036],[126.78129065840483,35.2250130654905],[126.78143626865526,35.22487863364006],[126.78151532377373,35.2248336200062],[126.78163501930312,35.22477683613327],[126.78174584037832,35.22475246742108],[126.78199914827755,35.224736756046596],[126.78203138904303,35.22487094243518],[126.78208479878519,35.22495130464023],[126.78243987757081,35.22482928377496],[126.78246903526468,35.22483569988981],[126.7831725782122,35.22456250290333],[126.78350443259973,35.22450650624182],[126.78413518356588,35.22427249647008],[126.7844237902833,35.2241876661504],[126.78523468438851,35.224112250000815],[126.78574496722501,35.223975869223125],[126.78590283296822,35.2240256341576],[126.78600601540464,35.22402315000658],[126.78625920435088,35.223905730403885],[126.78650348452271,35.22392184812456],[126.78654730623623,35.223873785890916],[126.78661539673473,35.22389492598429],[126.78764865691771,35.223264344667164],[126.78818779664199,35.22375802408499],[126.78846953699836,35.22409581233695],[126.78856240359762,35.22414430447875],[126.78880366474473,35.22411376815944],[126.78911215071389,35.22399443034446],[126.7894251811692,35.223964396282426],[126.7899536882153,35.22371423418409],[126.79006165942836,35.22361845632094],[126.79018230913827,35.22353803269783],[126.79025467915278,35.22345544317088],[126.79074119596797,35.223155538650744],[126.79079987595959,35.223137343747545],[126.79139560139924,35.2224593801009],[126.79269443361092,35.22187928555433],[126.79295865821513,35.22166267019162],[126.79340922430814,35.220997552258176],[126.793573712502,35.22084496647586],[126.79421000041069,35.22042275099966],[126.79466370008954,35.22009233599927],[126.7950667547384,35.21987277187742],[126.79528699498206,35.21980503260937],[126.79629070695714,35.219691220839906],[126.79684785473722,35.22009354192563],[126.79708517688182,35.22019582088471],[126.79735869985339,35.220259042772845],[126.79760875978256,35.22022238313574],[126.7977094693066,35.22017014740987],[126.79780916456548,35.220087544962674],[126.79787315727616,35.22010934836399],[126.79805432738702,35.22009442017308],[126.79831202136984,35.22010558021054],[126.7984979106646,35.22008759313048],[126.79851543086937,35.22010024074838],[126.79868480516745,35.220067319495506],[126.79878352139613,35.22001192623226],[126.7989961182833,35.21994747578203],[126.80078420150016,35.21974577463151],[126.8008685740603,35.219756551092644],[126.80114935837395,35.2197306780361],[126.80122379874375,35.21975558769064],[126.80130579725827,35.21982939892732],[126.80133290958085,35.21981853766838],[126.80156213805536,35.22025368899855],[126.8018687629806,35.220504082091914],[126.80215434693461,35.2208974303716],[126.80240789433635,35.22087605372897],[126.80278305731318,35.22080879851238],[126.8029301090037,35.22091661448441],[126.80290642423815,35.22108983226009],[126.80309843625471,35.22112480340928],[126.80319141569035,35.2211606036816],[126.80339044444817,35.22118226525609],[126.80353197918329,35.22117448382041],[126.80413444151507,35.22128478230183],[126.80440932858224,35.22131954335239],[126.80456441834141,35.220882587881114],[126.80454895368023,35.22078368743864],[126.80456503483691,35.220701232010946],[126.80460805508416,35.22065267432894],[126.80461516573749,35.2199822851314],[126.80464829044593,35.21988290188952],[126.80466642463813,35.219882931209],[126.80469410245064,35.21963334126622],[126.80479644309466,35.21941228123017],[126.80490033563598,35.21929420289959],[126.80499124775362,35.21887919045534],[126.80503074656232,35.21881474626273],[126.8051329611534,35.218713439419204],[126.80521441546111,35.21853062417],[126.80531371112436,35.218364326491226],[126.80538870842197,35.218295115757876],[126.80545532930208,35.21836124646323],[126.80556903812325,35.21856372838172],[126.80561775743195,35.21862026693119],[126.80571045336049,35.21870463944797],[126.80599755410941,35.218877772504584],[126.80605604389204,35.2189641704212],[126.80597666309926,35.21934801676124],[126.80599613002728,35.21935290584011],[126.80605600771862,35.21932314890117],[126.80621405577064,35.21930737802552],[126.80652647556114,35.21938946259585],[126.806627960175,35.21940485954756],[126.80673724002847,35.219398886838796],[126.80674684374911,35.219387733838744],[126.80690339114972,35.219412123722734],[126.80702027666182,35.21963832426116],[126.80717698853942,35.219768711901885],[126.80740106153584,35.219798697536184],[126.80762304795965,35.21993000084702],[126.80801299727516,35.2199369607294],[126.8081918210808,35.21998825374911],[126.80834260102938,35.22012497461964],[126.80841367529065,35.22021837818998],[126.80850841407415,35.22041157788925],[126.80852919494436,35.22056011732429],[126.80872790628835,35.221051233638235],[126.80883233330023,35.22100383479514],[126.80894539464462,35.22106647859391],[126.80905922491073,35.22108807547778],[126.80920408777851,35.22109877840329],[126.80937690684023,35.2210850633072],[126.80939804218859,35.221065502712996],[126.80943500739988,35.22107727774724],[126.80947259955191,35.22105629166946],[126.80959635444296,35.22108462707789],[126.80969508565795,35.22109032703544],[126.80979553037419,35.220989165781695],[126.80989200198054,35.22107720035688],[126.80999320472627,35.22111103513959],[126.81001513608724,35.221103604889485],[126.81013980997918,35.221240474088304],[126.81033478948932,35.22115460360485],[126.81054199926453,35.221093955078665],[126.8108579968706,35.22112563003449],[126.8108529363835,35.22134017746652],[126.81096281713332,35.221459138453056],[126.81106689866813,35.22170918312182],[126.81136858863832,35.2221355411286],[126.8115058256551,35.22240305938573],[126.81158476160174,35.222513957995425],[126.81168357891362,35.22260168708733],[126.81177464013219,35.222657100553896],[126.8120461311445,35.22261542397776],[126.81206788280005,35.22258126897931],[126.81211493440652,35.22257360960643],[126.81212883765757,35.22268695629055],[126.81218331361815,35.222728415099255],[126.81224622407069,35.222749873857545],[126.81233151006182,35.22275674142245],[126.81242384996995,35.22276315757235],[126.81263892590091,35.22269347646826],[126.81291316254662,35.22266614408032],[126.81317161184765,35.22269257668364],[126.81320377696454,35.22270950895086],[126.81314772927959,35.22297845900232],[126.81318835197577,35.22303967407765],[126.81345312806499,35.22322363369555],[126.81355347816263,35.22343880476825],[126.81373243328083,35.22353834877809],[126.81380338080675,35.22353811437429],[126.81418699875945,35.22368406082661],[126.81425044953637,35.2236953884271],[126.81435958702086,35.22375360291257],[126.81448177450072,35.22377811212793],[126.81462589761033,35.22386464636779],[126.81470008375477,35.2238889791615],[126.81482145347934,35.223987800614715],[126.81500845652377,35.22409081561707],[126.8150729351921,35.22411900838563],[126.81518414583748,35.22412600349738],[126.81531606298063,35.22420013456424],[126.8153345417952,35.224246770741786],[126.81530976457148,35.22430803291714],[126.81536841177555,35.22442206309294],[126.81564893927613,35.224668604869656],[126.81564312601952,35.22471161011754],[126.81571890163673,35.22470573157339],[126.81609895630734,35.224606101196976],[126.8165389327458,35.22441775263358],[126.81669920253701,35.224278424919355],[126.81687903706941,35.22404072671175],[126.81695301099874,35.22398479397367],[126.81759706061143,35.223872835187635],[126.81780943845904,35.22385463598219],[126.81807919156817,35.22409778603118],[126.81819493164079,35.22423500060025],[126.8183852311016,35.22441272671046],[126.8184951694472,35.22447748194356],[126.81855423219291,35.22453657391902],[126.81859139572367,35.224677186040665],[126.81870329571524,35.224666520419156],[126.8187655742947,35.22482405336761],[126.81885293204282,35.22490812522363],[126.81890223411789,35.2249994425763],[126.819016246537,35.22507531824916],[126.81930793555001,35.22521354578047],[126.81945526062924,35.22522270843654],[126.8195142007906,35.225346777676975],[126.81963568809067,35.22546064598043],[126.81963036278385,35.22561745404652],[126.8196657692055,35.225916058922984],[126.81965993869952,35.22599498059171],[126.81979198303361,35.226146812526174],[126.82023335844272,35.22619876939199],[126.82049843301988,35.226196379486396],[126.82065496902963,35.226074445327924],[126.82072863011344,35.22596604285929],[126.8209046109654,35.22589821722665],[126.82089409550943,35.22589374057049],[126.8210279403818,35.22578017252699],[126.82123667174261,35.22581888043924],[126.82141760434959,35.22593977712013],[126.8215739114761,35.226000632703865],[126.82165634499256,35.226082715575515],[126.82178541230842,35.22611309172619],[126.82190956359952,35.2260462254872],[126.82205188025334,35.22601092439844],[126.82224708681264,35.22602556177825],[126.82238291400957,35.22596427334969],[126.82249240429876,35.22597053799411],[126.82289163326149,35.225896828810576],[126.82296025985475,35.22590373638279],[126.82296950980636,35.22596370717129],[126.82311405808002,35.22598723900908],[126.82326290823845,35.22597295533508],[126.82329562224417,35.22585681940273],[126.8233545573287,35.22581508324269],[126.82349741653495,35.22579690565784],[126.82364084137014,35.225746974468514],[126.82373929811166,35.22575040905014],[126.82395104632378,35.22579080357927],[126.82406118122482,35.22588985964567],[126.8241642487204,35.226041094785046],[126.82441403755143,35.22646582863606],[126.82451745303275,35.22668502572793],[126.8248990821648,35.22706805091994],[126.82489302747504,35.22702052233058],[126.82497090203954,35.22713546574146],[126.82501604755994,35.22740510524337],[126.82490771450608,35.22788265873381],[126.82490463858345,35.228800680914965],[126.82462461635933,35.22949745164379],[126.82447391461473,35.23042729956167],[126.82444548512537,35.23048815275994],[126.82434991268777,35.23058510205878],[126.82449170100708,35.23081094561516],[126.82461719434346,35.23117678469226],[126.82471159829987,35.231294783389075],[126.82474285296125,35.23143568067869],[126.82526279775612,35.231927336838275],[126.82585468502607,35.23167360489259],[126.82643513556427,35.23148005180465],[126.82737822631019,35.231106824034704],[126.82751849332371,35.2312268048523],[126.82794606371627,35.23098277507133],[126.82793972948367,35.23087256795578],[126.82980830846324,35.23039814246032],[126.83019212797264,35.23022578202443],[126.83054015215185,35.229961710862916],[126.83078365133805,35.229870216717124],[126.83163171368818,35.22945105977326],[126.83249864529509,35.228896297512826],[126.83324260071319,35.228331190001775],[126.83485993622297,35.22873263033813],[126.83504389231216,35.228758311248455],[126.8350059906565,35.22883361322324],[126.83504516896814,35.22876225143156],[126.83513068321635,35.22872088006242],[126.83520030898832,35.22864034665311],[126.83527372669862,35.228505953561914],[126.8354118761469,35.22816959020074],[126.83576006635602,35.227633849795694],[126.83568297696787,35.22746910473731],[126.83565023253979,35.22743103241799],[126.83568815940748,35.2273790408409],[126.8358004229131,35.22737372376977],[126.8358280060136,35.22735703245225],[126.83595348983198,35.22738157600128],[126.8362754232989,35.227335794624544],[126.8363146946475,35.227343193711064],[126.83650743247503,35.22694976818129],[126.83672771440757,35.22657737186761],[126.83714384423168,35.225721102540355],[126.83727024676676,35.22553968928708],[126.8375343120484,35.22497207618236],[126.83804775926,35.22398897939824],[126.83813888001835,35.2240130884008],[126.83817210710023,35.22393092949483],[126.84193283618406,35.224971495516165],[126.84473130515384,35.225898396446816],[126.84589289788035,35.22354874005764],[126.84597179283887,35.22336109161999],[126.84605922895845,35.22307205262306],[126.846108669134,35.222777106018924],[126.84611656542528,35.222034228167516],[126.84619456465427,35.22197006311159],[126.85304907007917,35.221938730121366],[126.85302286917029,35.218049036319535],[126.85311548961377,35.2179720840119],[126.85503014248077,35.217961525500975],[126.85556325153988,35.21791610952853],[126.85582594387817,35.21787216959857],[126.85625150678656,35.21777443556868],[126.85664912957235,35.21763781665274],[126.85700842678301,35.217487626772055],[126.85692597709281,35.21744424153193],[126.85694876362275,35.21742405940496],[126.85691181404894,35.21737932738922],[126.85682843727609,35.21732424640273],[126.85673071663827,35.21730700351383],[126.85642063528515,35.217053427109285],[126.85581940146469,35.21652174110035],[126.85515231832481,35.21591776613872],[126.85515272720887,35.21587538962044],[126.8545104497806,35.21533907375098],[126.85376334310067,35.21455870900944],[126.8538052412691,35.214460511078045],[126.85364748191724,35.214390133090966],[126.8534722309199,35.21412762797339],[126.8531084506606,35.21365848343568],[126.85311607271427,35.213634626786494],[126.85290437899523,35.21274156498211],[126.85273280922372,35.21233327466259],[126.85263477397129,35.21181469175263],[126.85258007830467,35.21101684624044],[126.85265748909961,35.21070081360441],[126.85295383037244,35.21028980715122],[126.8533649869655,35.20977714311303],[126.85361806560658,35.209539624150814],[126.85425039702646,35.20853565862772],[126.85443032151025,35.20814883568116],[126.85467962948965,35.20738501434247],[126.85487581542218,35.206721931535036],[126.85505714606028,35.20598950916504],[126.85512301310496,35.20556874626619],[126.85512273061929,35.20539326244153],[126.85511188109673,35.2050560243931],[126.85503866637904,35.20449480110401],[126.85507835932205,35.20400237178817],[126.85518256694144,35.203240561208524],[126.85531911917748,35.201878140583375],[126.85532509538803,35.20136157753046],[126.85511010553091,35.200633242338924],[126.85476311062347,35.20006703557524],[126.85421547745392,35.19946065322553],[126.85362458975392,35.19904644390668],[126.85309752915734,35.19883464979156],[126.851968783291,35.19831887272405],[126.85212324144669,35.19724552868515],[126.8522090087904,35.19706655467661],[126.8527793269787,35.19662905753603],[126.85330739461821,35.19638065290146],[126.8540038232165,35.19614419537369],[126.85454576267908,35.196072909013594],[126.85506892702129,35.19613548244237],[126.85544619338106,35.196099929169975],[126.8567215213518,35.19555074487704],[126.8571562656785,35.19543491693391],[126.85808940244546,35.19503300910174],[126.85854967678968,35.19478150701272],[126.85895317243218,35.19434489006552],[126.85918499390652,35.193894203141575],[126.85933949473834,35.19350872132931],[126.85965891719418,35.192150971838124],[126.85962161600459,35.19168790283193],[126.85945056740188,35.191230254970925],[126.85924819165254,35.19057151932024],[126.85916479387564,35.190235317751664],[126.85916561483124,35.189583243851885],[126.85929478734117,35.18888532773808],[126.85949021239466,35.188114605323946],[126.85982272897247,35.18756170163044],[126.85985605836909,35.18748765821039],[126.85989249219699,35.187188057209],[126.86011756316341,35.186810402096775],[126.86034456045618,35.186301872629755],[126.8604029171885,35.185682689422784],[126.85947310543013,35.184362902153396],[126.8591838911013,35.18388931911955],[126.85859537826255,35.18321190171326],[126.85813207850445,35.182835750367644],[126.85710108575287,35.18228925713823],[126.85602976953014,35.18199848947915],[126.85541054009477,35.182030788197316],[126.85472940005911,35.182192009573576],[126.85407980761097,35.18237950400268],[126.85325449785284,35.18240406858658],[126.8525968941479,35.1822192518557],[126.85193446053077,35.181795693930034],[126.85143244706387,35.18118436360645],[126.85132674356328,35.18042123094329],[126.85086146636468,35.17980327358382],[126.85022030896583,35.17963239936519],[126.84935519811478,35.179555233418334],[126.84885932223357,35.17957783778214],[126.84816681376647,35.179641193771026],[126.84711258878181,35.17956684596033],[126.84648347598,35.17986301057924],[126.84609965570986,35.18024626769035],[126.8458121804847,35.1806371935191],[126.84477033626592,35.18219502349579],[126.84137738893843,35.1818484180193],[126.84092299155414,35.181325871769495],[126.83915422454119,35.17945666603025],[126.83896083167164,35.17888843960578],[126.83870896612085,35.17839436838464],[126.8380576286911,35.177426018796474],[126.83769408687681,35.17666804210642],[126.83766500695076,35.17610458999274],[126.83766953867885,35.17548170858939],[126.83773025224662,35.174943826023615],[126.83753597224813,35.173292954502955],[126.83738752388514,35.173063603596916],[126.83737148116427,35.17284322291664],[126.83739057188996,35.17249263265908],[126.83749902424573,35.17215573652395],[126.83762784316589,35.17149728654763],[126.83759274009881,35.17120058067008],[126.83738037554895,35.170796158991955],[126.83686798181508,35.170435819941304],[126.836153499641,35.17008493389094],[126.83398078088354,35.16987980406673],[126.83278563933153,35.16988621330998],[126.83252914093946,35.169821797682786],[126.83188887389765,35.16962755435846],[126.83066652358114,35.169355251806806],[126.8304531567582,35.16921784591924],[126.82907344723873,35.16842344082925],[126.82839732419404,35.168168219589724],[126.82792632665308,35.16800872274015],[126.82696228451631,35.167312540688854],[126.82691763532375,35.167298144968036],[126.82628979872449,35.166756170677814],[126.82513182933127,35.16583454929153],[126.82499906566667,35.16563282286502],[126.82488785068335,35.1653920682499],[126.82452551234161,35.16472979786992],[126.82447930572258,35.16461130141469],[126.82448329950967,35.16392565205078],[126.82441813088874,35.16360064685616],[126.82445643599966,35.16320106987835],[126.82445730080326,35.162801430161686],[126.82465209367001,35.16222746241081],[126.8249986334329,35.16171270323089],[126.8252071345853,35.161347893161455],[126.82556053580564,35.16113032086113],[126.82594203312745,35.160755413992874],[126.8260955054235,35.16045679881486],[126.8260770242243,35.16044763694713],[126.8256662504229,35.158624155100675],[126.82522957488314,35.157837919791874],[126.82583041904302,35.15753793758029],[126.82572705229727,35.157420440769364],[126.82554046816543,35.15712664922109],[126.82547946301096,35.15697101438796],[126.82527476564273,35.15588313897763],[126.82527598111405,35.15580068801436],[126.82543224719187,35.155149706069054],[126.82537673780045,35.155018321220176],[126.82523815349332,35.1545206812962],[126.82527663327573,35.15364459652625],[126.8261143404768,35.15273839194201],[126.82707722925488,35.15192411880296],[126.82753841853113,35.15141541699462],[126.82769509923857,35.15117901932599],[126.82816645682105,35.15071662237106],[126.82834768075374,35.15048711273627],[126.82845064378134,35.150351178592935],[126.82851682797353,35.15020686752071],[126.82881442070614,35.14923404471568],[126.82912826511462,35.14861982459211],[126.82919244882004,35.14781236219254],[126.82926754888283,35.14716892903355],[126.82925469334154,35.14660784086572],[126.82916517333562,35.14609003032706],[126.82912905576585,35.14560778259262],[126.82926087933485,35.14532489810754],[126.82912656548052,35.144445624311835],[126.82912630355382,35.14420745931916],[126.82882709931798,35.14420642166635],[126.82886051131902,35.14410851962548],[126.82930578328497,35.14333215729315],[126.82956981864429,35.1425524623848],[126.82968444106902,35.14146099756452],[126.82944064307075,35.14082862477612],[126.82875709478846,35.14013907145663],[126.8281886522956,35.13937170165607],[126.82785643596534,35.13908286470974],[126.82744782858266,35.138644679549465],[126.82698332522507,35.13829681900301],[126.82654102017081,35.137939875467744],[126.82601582019626,35.13738894683162],[126.82524845781359,35.13670835462237],[126.8249340298466,35.1363975332214],[126.82424879828731,35.135638042331166],[126.82373061930997,35.13523803653118],[126.82294743855205,35.13507834074053],[126.82226828139483,35.134968497035466],[126.82144277493863,35.13465208689459],[126.82062325204565,35.134267700991344],[126.81976886572912,35.13370625754201],[126.81942677229394,35.133378182035045],[126.81919554669673,35.13312188539682],[126.81898970771454,35.132794346780116],[126.81882118341981,35.13214805462732],[126.81873315084883,35.13171777667494],[126.81868030202753,35.13116649043376],[126.81876311803664,35.13054262406624],[126.81889376686438,35.13006620147717],[126.81902593232624,35.129770367706016],[126.8193478806545,35.12930822923273],[126.81977939101955,35.12894244858349],[126.8209062416919,35.128364459573305],[126.82156490226357,35.127843859212646],[126.82204251553713,35.127109194332476],[126.82224366482049,35.126667849976606],[126.82199592189342,35.12606443157478],[126.8217736500636,35.12564145834709],[126.82151410890125,35.12505463392797],[126.82102414482198,35.124289965553814],[126.82043233876931,35.123892369696144],[126.81956925991503,35.12348033774941],[126.81917650546436,35.123274500377654],[126.81860271965482,35.12294349570982],[126.8182767086846,35.12263908844691],[126.8181489568213,35.12255879534458],[126.81767965492446,35.12208483627999],[126.81721974863775,35.1214656529487],[126.81694114936316,35.12073238897816],[126.81710366723308,35.119791087329986],[126.81686369000249,35.1189514116492],[126.81678495358847,35.118729260348985],[126.81681380391485,35.11852105254795],[126.81704158320012,35.1183035312219],[126.81721517471964,35.1182240049919],[126.81749725796584,35.118034122947385],[126.81790185342072,35.11780952648805],[126.81751594395573,35.11724168642905],[126.81742517541906,35.11727740492734],[126.81690534517212,35.116780363012126],[126.8167227563534,35.11665211866987],[126.81645097873175,35.11662782733553],[126.81619258409945,35.11678832513499],[126.81592171369462,35.11689611043827],[126.81562385386336,35.11681180045386],[126.81553440741438,35.11686417678385],[126.81536445329728,35.11691623991934],[126.8150067167642,35.11693976593071],[126.81458229971919,35.11684047677237],[126.81432146156052,35.11680565109773],[126.8143215222521,35.116755239532836],[126.81407616130831,35.11677323918786],[126.81394301766142,35.11679364598627],[126.81344392717762,35.117006783835826],[126.81312512324303,35.117038981884335],[126.81259932077565,35.116904417248286],[126.81241259502961,35.11694475273718],[126.81229244923648,35.11691778645741],[126.81218434688283,35.11675706732106],[126.8120379381241,35.11667099380487],[126.81176335405327,35.11669846093309],[126.81142269245387,35.11668646229546],[126.81097583021885,35.116693566717984],[126.81032953596163,35.11662119846649],[126.80993504740248,35.11672580077486],[126.80983070770728,35.11657363922303],[126.80981873861197,35.116461311568564],[126.80975785087449,35.11636536795634],[126.80972304807932,35.11634258477748],[126.80963655848905,35.11636044100069],[126.80958466510717,35.11629300902714],[126.80969964977946,35.11619564862312],[126.80970743670048,35.116073394011536],[126.80967053771495,35.11603007414913],[126.80956686428863,35.11580937488571],[126.8094609776104,35.115691074921855],[126.80957531187522,35.1153519899693],[126.80948023662877,35.11523873991246],[126.80945980777356,35.11509514879742],[126.8094211040339,35.11508242346461],[126.80946699907388,35.11486349133274],[126.80946137001034,35.11462125957182],[126.80949772243244,35.114435130622326],[126.80937305980866,35.11424451563752],[126.80936582872882,35.11416576823341],[126.809413440334,35.11409436567939],[126.80952054635715,35.11403341553294],[126.80957910546609,35.11395247121118],[126.80963584079434,35.11381140341548],[126.8096465512462,35.1137355279403],[126.80961375313977,35.113500597901485],[126.80965790793988,35.11351446621914],[126.8094562890281,35.11311566755169],[126.80939018507912,35.112845587394766],[126.80941434592548,35.11239082386648],[126.80926755874695,35.11229392709345],[126.80924092311777,35.112290780754016],[126.8091976892865,35.112343775559495],[126.80894752738384,35.11245920255269],[126.80877784638743,35.112472120470805],[126.80846159225281,35.11242079867936],[126.80839513960832,35.112439576283904],[126.80830380196147,35.112498659638156],[126.80803224385326,35.11254172615204],[126.80797323913092,35.11256979933519],[126.80795024899378,35.11260661003569],[126.80790843427538,35.11262013583226],[126.80784076318596,35.11262075846044],[126.80774290018834,35.112595886056326],[126.80769517310058,35.112604850554455],[126.80768488443366,35.11263260488232],[126.80748139878374,35.112583948857214],[126.8074851032034,35.11257312720475],[126.80745784421948,35.112567086761835],[126.80707648044789,35.112564516050476],[126.80705983797858,35.11250516177261],[126.80691239252997,35.112517517984216],[126.8068437018112,35.112278195961565],[126.80676584557925,35.11227660106906],[126.80672481688951,35.11218138804473],[126.80667113238545,35.11213115901273],[126.80655603442754,35.11213024366192],[126.80627509392501,35.11197708396145],[126.80609485935618,35.111926443277525],[126.80592808706746,35.1119114011715],[126.805806256502,35.111932440947626],[126.80565440118363,35.112073826892455],[126.80530538885729,35.11223591229818],[126.80515051711026,35.11237193861032],[126.80501541236467,35.11239373106305],[126.80491505592546,35.112392802185326],[126.80481686940972,35.11243458319299],[126.80476638616302,35.112494766496546],[126.80457084420708,35.11255136116279],[126.8044708809354,35.112487355417215],[126.80440511257832,35.112404197033925],[126.8038834488249,35.11270378028748],[126.80350395852588,35.1127087992029],[126.80352702323032,35.11274012753563],[126.80349029142882,35.11273834571625],[126.80333203185249,35.11267694812695],[126.80331676740396,35.11265700305941],[126.80331687337844,35.11258987516078],[126.80328290906212,35.11253307384519],[126.80309710085875,35.1124467081085],[126.8028080015951,35.11228594623775],[126.80280755084034,35.112270182251045],[126.80269612925204,35.112289332476266],[126.80271440839704,35.11211510024024],[126.80287725184088,35.111918602283865],[126.80291289793152,35.11159934135065],[126.8028550601339,35.111503254052835],[126.80298426301451,35.11102470935922],[126.80386428333003,35.10880510468511],[126.8040413045335,35.10851035004645],[126.8043821895634,35.108114838480546],[126.80471724597642,35.10783532393839],[126.80486912962174,35.10751118136333],[126.80479296286147,35.10734433951543],[126.80471410288149,35.10709159635568],[126.80469909309797,35.10675557895712],[126.80475476353901,35.1064157126613],[126.80494224347454,35.10579999124991],[126.80507818103483,35.105427110891156],[126.8052777867876,35.10515023735942],[126.80553978727801,35.10495755521976],[126.80554917948568,35.10451128712134],[126.80582752225351,35.10389509807174],[126.80620492440568,35.103421247791175],[126.80632921515482,35.102873362687056],[126.80595635873271,35.10244993990072],[126.80531086245361,35.10224893059305],[126.80436715639397,35.102351787272546],[126.80338544956729,35.102819850876244],[126.80250588778155,35.10218171670268],[126.80161902229398,35.10171096468984],[126.80100586668166,35.10099114364796],[126.80050640515589,35.100788953443725],[126.80039796661842,35.10066399869321],[126.80033795250814,35.100462408671966],[126.80033678321132,35.10028401041926],[126.80023541547776,35.10008321658367],[126.8001840143193,35.09993896699549],[126.8001985739036,35.099914056638596],[126.80083750491576,35.099937278780516],[126.80077636335915,35.09940597221172],[126.8006631797778,35.098707256127746],[126.80067217384442,35.098064074915385],[126.8006267391098,35.09729234489699],[126.80077969550905,35.09669347218022],[126.80109505444375,35.096066519436405],[126.80159384946546,35.09533746456461],[126.80189540806266,35.09493708134733],[126.80192836435792,35.09486472064063],[126.8021579233471,35.09458084293426],[126.80243735942794,35.09401163324368],[126.80255924971986,35.09327783426903],[126.80267821544854,35.09273495639168],[126.80253977889521,35.092186643556595],[126.80222383321275,35.0916262016595],[126.80122252726886,35.09079127626652],[126.80059183516526,35.090464426441244],[126.8002670320931,35.09008146736071],[126.79983510680663,35.089910834392306],[126.79966855031668,35.08980894617543],[126.79943852993758,35.089721608929835],[126.79915653088197,35.08957609200993],[126.79878651004124,35.08942068317127],[126.79823344077664,35.089076086151174],[126.79792244149493,35.08910263192364],[126.79736116017925,35.08905489951792],[126.79598193579677,35.08799363184082],[126.79402049611352,35.08440119947897],[126.79419279181543,35.08433774404096],[126.79390741565021,35.08429483473305],[126.79379775023858,35.08425135415941],[126.79307168259355,35.08361692781872],[126.7922611649403,35.08286024661567],[126.79195970844951,35.082611128425114],[126.79139658913967,35.0820886607916],[126.79135006931476,35.08202204215106],[126.79070776813802,35.08050933566861],[126.79058223584802,35.080545951939996],[126.79026267772933,35.07995457662631],[126.7897152596956,35.080145894451036],[126.78906668915485,35.078941962254696],[126.78905039158087,35.07894763944973],[126.78905084620544,35.07886379134185],[126.78808783722799,35.077996128221876],[126.78804661576471,35.077794045943925],[126.78771201906635,35.077035018195986],[126.78700282878161,35.07633272072255],[126.78670319387048,35.07583513245399],[126.78607893063884,35.074902231831665],[126.78523275557963,35.07420793711471],[126.7845328944985,35.0737182201871],[126.78386108991423,35.07332287727888],[126.7825023705602,35.072560537166154],[126.78225500223917,35.072449341782715],[126.7815317603435,35.072179009251094],[126.78107862569071,35.07204201715912],[126.78028738056592,35.07183056869694],[126.77912752527887,35.07154882673373],[126.77740413591428,35.071352222933065],[126.77533191659887,35.071267498623534],[126.77439319626353,35.071138752318404],[126.77328559084056,35.07091228768565],[126.77231147934526,35.070601770417575],[126.77131442882768,35.07016992239303],[126.7710831169789,35.07072368198896],[126.77102502646889,35.07090540404636],[126.77097188507656,35.07128753781091],[126.77099955892163,35.0714632525702],[126.77090749114069,35.071625115768846],[126.77066138249879,35.07158388870566],[126.77057916891822,35.07162122906246],[126.77058558339083,35.07237171175909],[126.77055325925991,35.072668766400454],[126.77036213334968,35.07282920643735],[126.77015123471986,35.07289746997724],[126.77000963501251,35.07295990775789],[126.76974386981998,35.0730407221276],[126.76955014045737,35.073147794718125],[126.76935212292685,35.073282206198506],[126.7693310276128,35.07336749791808],[126.76927815371546,35.07343523397257],[126.76896996208586,35.07368012999157],[126.7687441777413,35.07374330315838],[126.76845483778817,35.07403871337385],[126.76833009491962,35.07427948062701],[126.76815339893916,35.07446763427847],[126.76804089248166,35.07456488258195],[126.76778774550884,35.0747093346477],[126.7677230877526,35.074786709340984],[126.76751261560236,35.0749648916822],[126.76746226414714,35.07502746634407],[126.76726780177376,35.07517358914949],[126.76697604642521,35.075486366934356],[126.76693990433603,35.07559917482268],[126.76694111543952,35.07571995055018],[126.76698975797231,35.0758562770765],[126.76704193321949,35.07626039691105],[126.7669132701045,35.07633930582584],[126.76676783328688,35.07629600756367],[126.76669771887413,35.07629869361538],[126.76666802298315,35.07634835612999],[126.76665664116055,35.07641420823779],[126.76660984091413,35.07647702401206],[126.76651781246241,35.0765290676482],[126.76639246055153,35.07664490561852],[126.76634618703514,35.07675740584671],[126.76603231746512,35.07705533788633],[126.76585449811458,35.077339958505014],[126.76568293540254,35.07771759446557],[126.76557341550665,35.07779935090535],[126.76541825837153,35.078076687021486],[126.76525177418246,35.07828105397777],[126.76484995232994,35.07870607571928],[126.7648285354572,35.07875633868547],[126.76496011412746,35.07884305362827],[126.76518576869304,35.07911357798953],[126.76514992068296,35.079426768863506],[126.76561731176461,35.080682413705794],[126.76559754611417,35.08074431103082],[126.76564261270482,35.08095176246399],[126.76570398953378,35.08189264847283],[126.76559424959981,35.08226599557965],[126.76559862273042,35.08280810277673],[126.76552915602718,35.08312865438245],[126.76545905836011,35.08331016078456],[126.76521558607062,35.08373527398781],[126.76508538096422,35.08376615377481],[126.7648668167627,35.08370472753583],[126.76446306506722,35.083782798857555],[126.76402227625621,35.08397624368328],[126.76372849439423,35.08400593252724],[126.76323841326591,35.08430373081009],[126.76337939620628,35.08471532794025],[126.76342571617973,35.08493480593142],[126.763336155781,35.08529473792026],[126.76334534037736,35.08535700858859],[126.76327764051176,35.0854355461574],[126.76289791537319,35.08572046881767],[126.76281892040008,35.08598369157664],[126.76281571566076,35.086334739523956],[126.76276909447272,35.086843635483696],[126.76281205525326,35.087136178556136],[126.76273907526365,35.087291195214576],[126.76261774040037,35.08744391009804],[126.76265196601291,35.087508198417396],[126.76239100764843,35.087768304267414],[126.76185612781363,35.088361214655],[126.7617132988887,35.088576048082345],[126.76176077153109,35.08896843133739],[126.76171097943912,35.08912426025209],[126.76172301438827,35.08935500003982],[126.76205064296029,35.08969493422958],[126.76201646590368,35.090027369780074],[126.76183500346897,35.09102499556962],[126.7613876420676,35.0910399212365],[126.76108346474271,35.09102532053499],[126.76091753572372,35.09106184721448],[126.7601369115146,35.09129744580142],[126.75976740921453,35.09145012149334],[126.75961173918219,35.091496280600666],[126.75868953667874,35.091633778893964],[126.75779848365423,35.09158648784164],[126.7576133958168,35.091552007896986],[126.7573571505753,35.09125481844104],[126.75590597721855,35.09168631857345],[126.75545999188138,35.091588102935354],[126.7549934681027,35.09151634081432],[126.75472730015204,35.09164438732529],[126.7544824916379,35.09168391440943],[126.75423906581572,35.09169385105533],[126.75407162402797,35.09193180248705],[126.75390916736279,35.09209970634592],[126.75395886691868,35.092662997193734],[126.75410606328842,35.09274065554181],[126.7537100080975,35.09356089364039],[126.75353081507446,35.094021577540126],[126.75339095131383,35.09425115674273],[126.75324198865381,35.09444690641042],[126.75317927516396,35.09466419236293],[126.75274547145295,35.095031924152146],[126.75232937220822,35.095285379698105],[126.75241143728563,35.095358215898266],[126.75237811793025,35.09549931914238],[126.75226692374224,35.09557123501734],[126.75228586106768,35.095626392699465],[126.75206567396256,35.09561715493845],[126.7521726621324,35.09588130769664],[126.75198594003524,35.09606064626447],[126.75196193899257,35.095986576526855],[126.75195549622548,35.096049569464945],[126.75174137825064,35.09627668039063],[126.75158173245396,35.09640548082049],[126.75113236372785,35.09683716034401],[126.75099457984406,35.09694241807876],[126.7508238119653,35.09728219334073],[126.75080484222589,35.09738871336002],[126.75079005794467,35.09795143813313],[126.75060488874435,35.09831918862708],[126.75027284876431,35.09885678527936],[126.7498170654507,35.09933143389427],[126.74975806738564,35.099350492404156],[126.74968921246212,35.09941875352292],[126.7495548309997,35.09974899464637],[126.74923184823186,35.10006966665864],[126.74905852840493,35.10031134876764],[126.74892613873914,35.10081314764516],[126.74900236817656,35.10081679300737],[126.74908567824703,35.10116929949705],[126.74913582232536,35.10150943473568],[126.74907086680712,35.10164431936706],[126.74898792790013,35.10173004715447],[126.74869963030895,35.101911930492534],[126.74809155899379,35.10212945742779],[126.74764334120772,35.102520205773054],[126.74725529173436,35.102426489707305],[126.74676876203688,35.10228140105559],[126.74633844655305,35.10251280239967],[126.74615198081291,35.10265136627449],[126.74587404216797,35.102943225611725],[126.74518145113107,35.10341857491874],[126.7445287621413,35.103940821094646],[126.74461703289609,35.10402824109495],[126.74453860562143,35.104061372351936],[126.74387199079496,35.104491934131595],[126.74370628859565,35.10466452589826],[126.74359335265589,35.10467718361651],[126.74332418968558,35.10477593183196],[126.74315593139845,35.10481214162665],[126.74313665510866,35.1049113671669],[126.74317822443788,35.10493553981317],[126.7431125772105,35.105075517704],[126.74310843943567,35.10513225759523],[126.74297018738838,35.10527696415573],[126.74269893962182,35.10550329411805],[126.74254233407797,35.10559007563199],[126.74205437108161,35.105799004985144],[126.74139275108709,35.10593294414629],[126.7410555833009,35.10590883859695],[126.74076323782067,35.10594148097983],[126.74034169245044,35.10616440796792],[126.74013006718788,35.106323007402864],[126.73982124353529,35.10646269967885],[126.73961554772414,35.10650523233397],[126.73935313928996,35.10667665414138],[126.73896435652401,35.107040593272394],[126.73880731112392,35.1072075725379],[126.7383538019829,35.10754317482244],[126.73740734959472,35.1079225818969],[126.73640711384365,35.10821246633676],[126.73567672232863,35.10798211094259],[126.73564767278758,35.10798682582074],[126.73548984714041,35.10795127471914],[126.73543136233424,35.108062384354675],[126.73545568948515,35.10813883215012],[126.73545303265723,35.10847229584472],[126.73538713773024,35.10886544097532],[126.73538356919371,35.109001727634165],[126.73529825436913,35.10915021983737],[126.73527364036421,35.10923097234615],[126.73511601985244,35.10936206260116],[126.73482780275069,35.109665214099444],[126.73463021032862,35.10995472810609],[126.7344146005216,35.110322765259184],[126.7342471777425,35.111059779135246],[126.7340379277743,35.111047527614275],[126.73389898335914,35.111255444551716],[126.73374922996652,35.11141443798348],[126.73354998285355,35.11168701923453],[126.73335980041531,35.11189119770123],[126.73297310568745,35.11221182063054],[126.73293097946961,35.112367139671],[126.73281674199241,35.11258911584384],[126.73279671031449,35.112731321474456],[126.73264858077816,35.11286160912546],[126.732454157385,35.11293626976244],[126.73237635656047,35.11287660125863],[126.73228466905283,35.112841957094396],[126.7322406134933,35.112798626613746],[126.73204365922415,35.11270580488565],[126.7318077282848,35.112558706191855],[126.73183122665952,35.11246494578088],[126.7317967107191,35.112440180074316],[126.73176689954953,35.11232803249796],[126.73174165371161,35.11232317193719],[126.73168195596293,35.11226101721848],[126.73154646847546,35.1121841423915],[126.73149754432555,35.112116876515955],[126.73137862115702,35.11208549627864],[126.73123311611144,35.11208181888697],[126.73120337320013,35.11210012231394],[126.73092190613863,35.112096205248555],[126.73069071654315,35.11212687572053],[126.73066762651744,35.1120918397116],[126.73078903174702,35.11203259393064],[126.73084062598485,35.11198053887304],[126.73083466679515,35.11175255406346],[126.73079871170415,35.11163262887439],[126.73064761924326,35.11147106556538],[126.73061644237022,35.11141767461437],[126.7305772262788,35.1114149730804],[126.73056917617404,35.1113858024896],[126.73061789109525,35.111368908190585],[126.73058675630138,35.111290910080065],[126.73051299550775,35.11039395741485],[126.73077104539715,35.109855035934636],[126.73129137866297,35.10937586124337],[126.73129723126108,35.10888346677148],[126.73098975506534,35.10867950288488],[126.73132439976746,35.10821271673595],[126.73121428374596,35.10811456364481],[126.73095321182154,35.10796739310133],[126.73085819111061,35.107897739849236],[126.73077139263266,35.10778603019158],[126.73039277044691,35.107761631905774],[126.72985948355694,35.107663569309324],[126.72952497966942,35.10756603215179],[126.72849513453805,35.10747513285271],[126.72841403300146,35.10742459395825],[126.7279891749549,35.10738557218075],[126.72721280182442,35.107505817532264],[126.72706250550068,35.10755643117355],[126.72682675327552,35.10766559344106],[126.72647637564367,35.10774292876337],[126.72607205854565,35.1078643617097],[126.72474799583665,35.10796714862407],[126.72438781911237,35.108035036636224],[126.72354188799315,35.10831838977961],[126.72331539627321,35.108256884758525],[126.72308621546578,35.10827006790556],[126.72282314230473,35.10824758842401],[126.72267637211446,35.10825981580901],[126.72242844539515,35.10834853010999],[126.72211770220981,35.10829066900469],[126.72167300995717,35.108257369675734],[126.72122366092125,35.10828823079597],[126.7210865059718,35.108279350625956],[126.72088484520387,35.1082092361007],[126.71987287111207,35.10830318263146],[126.71943376021642,35.10838004818937],[126.71908519658233,35.10851372906148],[126.71895790664895,35.108601972560535],[126.71743183538882,35.109839414965776],[126.71687953405676,35.11015090008621],[126.71679924865032,35.11029400040654],[126.71667367329091,35.110379686288695],[126.71633281443724,35.110502208900506],[126.71593137092606,35.110714180360745],[126.71579910594902,35.11072987637066],[126.7154989551086,35.11074749391908],[126.7149435941619,35.110568498286604],[126.71474494769231,35.11053038806854],[126.71428357689116,35.110356749294866],[126.71399333879634,35.11027452726472],[126.71388093725906,35.11022525454088],[126.71361585861509,35.11016067419691],[126.71342067621096,35.11007056168015],[126.71299755264606,35.109967377879535],[126.71277053225747,35.10989184457463],[126.71235244004073,35.109848691139184],[126.71139189420927,35.10986420863683],[126.71101688971544,35.109836413610985],[126.71080388408406,35.10984362475869],[126.71064106751892,35.10975495923163],[126.71040422512371,35.10966925762635],[126.70996647805009,35.109476285082216],[126.70969599602377,35.109458230104096],[126.70913653339525,35.109451041365055],[126.70912780681198,35.10949610632847],[126.70899506435143,35.109559701752715],[126.70899340726608,35.10959991661206],[126.70892439899056,35.10956712056801],[126.70882514488564,35.10947743910373],[126.70865400579693,35.109521030037904],[126.70842443199744,35.10977749806612],[126.70827552860601,35.10986593354976],[126.70787673016287,35.11032607264699],[126.70755884711897,35.11062339040477],[126.70716199750274,35.111066527442375],[126.70679461327715,35.11141930921439],[126.70638965696459,35.11199104753674],[126.70589126665517,35.11256399829561],[126.70557696974726,35.11286916086968],[126.70556345414201,35.11284843333139],[126.70539724546877,35.112888515437994],[126.70518449513125,35.11282190895187],[126.7049969368051,35.112801623421696],[126.70503832685785,35.112781801494236],[126.70418530445777,35.1126911849306],[126.70380371590915,35.11267914368617],[126.70356694744247,35.112690152075125],[126.7035753471885,35.11273947919407],[126.70269656968567,35.11270230786045],[126.70251394318845,35.112675096138624],[126.70231903638256,35.11261940797362],[126.70208835907879,35.11249784046148],[126.7016057373488,35.1123159678553],[126.70166990553638,35.11215639776746],[126.70179047718061,35.111959797183744],[126.70173139381998,35.111929653356306],[126.70148886274005,35.11167591605888],[126.70116407767307,35.11138598402747],[126.70117148520258,35.11131643982073],[126.70093696179383,35.11089316287907],[126.70085108597438,35.110809187027186],[126.70073706231457,35.110588305607095],[126.70041046685134,35.11027345382174],[126.7003690138052,35.110154615243964],[126.70018418915262,35.109906633695026],[126.70013675783574,35.10975226656696],[126.70009531903084,35.10945091261684],[126.70003695724151,35.109327722556394],[126.70006675211451,35.109130521775704],[126.70004685273295,35.10907103208627],[126.69994182023483,35.10898634937625],[126.6998642912838,35.10895130985379],[126.69955452663494,35.10886384701189],[126.6994470318929,35.10879258832627],[126.69917154807345,35.10871067992832],[126.69883778685443,35.10870007706226],[126.69866640319167,35.10867256329958],[126.69861204447234,35.108683907994596],[126.69837541117722,35.10856111014756],[126.69831266866109,35.10850808837343],[126.6982343391143,35.10848208654849],[126.69842797413204,35.1082818648757],[126.69840574929712,35.108246976172786],[126.69839296204279,35.10798572743454],[126.69829262779564,35.10792749592242],[126.69817693019276,35.10788623545913],[126.69752235860047,35.107583934447206],[126.69701369236024,35.10755692453645],[126.69647814600741,35.107682459401204],[126.69620997848521,35.10751343287998],[126.6959603728574,35.10748232905381],[126.69568381961084,35.10767100698875],[126.69554236000842,35.10787894482134],[126.6953349443129,35.10830424075116],[126.69501507396534,35.10864174871066],[126.69444723621528,35.1088136886575],[126.69421200388734,35.10890354386801],[126.69410175841634,35.10894687154735],[126.69391030764396,35.10906755230219],[126.69382728636124,35.10904083295222],[126.69360927690904,35.10905405263872],[126.69346938020347,35.10900435634792],[126.69335475008897,35.10894227730173],[126.69325108913465,35.10886767894399],[126.69325295093942,35.10878600215965],[126.69318325379132,35.10853690143514],[126.69313525969342,35.108462534599475],[126.69298786183661,35.10838704887459],[126.69274298632052,35.10832000480067],[126.692430489989,35.108183131371355],[126.6921944104359,35.10812077854218],[126.69230233070985,35.108244552368575],[126.69228786968094,35.108301265660536],[126.69222777185396,35.108463924572156],[126.69193877032801,35.10890735387093],[126.69188513335817,35.10904355221113],[126.6918508406337,35.10907620905726],[126.69187746653864,35.10924940548061],[126.69186670524925,35.109617870930855],[126.69166094501125,35.11004281245273],[126.69143790133451,35.110309873772415],[126.69111299512952,35.11052295207222],[126.6903802305871,35.110930894970515],[126.68987012036501,35.1111865345013],[126.689420319524,35.1110807936564],[126.68938890301027,35.11101788769302],[126.68925456962707,35.11104257316097],[126.6891482677387,35.11101990041703],[126.68878631736729,35.11100952128392],[126.68856910625712,35.1110389037221],[126.6874061977897,35.11144610523871],[126.68673418902016,35.11171100204902],[126.68622474908199,35.11178226432025],[126.6856075374885,35.11199855245128],[126.68553216999678,35.11199222382644],[126.68527037637517,35.11201595821221],[126.68489554554826,35.11201390270524],[126.68386241746036,35.11169371190946],[126.68341374098685,35.11152594853437],[126.68381911030178,35.11103223794971],[126.68426513226979,35.11008352366377],[126.68413220698247,35.11004557682587],[126.68504538757938,35.10841570056131],[126.68495005644107,35.10842332742969],[126.6847724332038,35.10847926095348],[126.68449376974252,35.108448833495096],[126.68444822377967,35.108248928375396],[126.68443085124963,35.10799312002119],[126.68446075330843,35.10787106461684],[126.68453373880028,35.10780020973767],[126.68458585686675,35.10766236530921],[126.68455393443737,35.107638030221956],[126.68384053712109,35.10751671563634],[126.6837205055851,35.107469296937346],[126.68357760166718,35.10744244868418],[126.68345225984065,35.107449240944334],[126.68304671615992,35.10738510936555],[126.68248269998683,35.10739419052133],[126.68193448815919,35.10742606149449],[126.68169948568756,35.10735882195462],[126.68128517740938,35.10744701748929],[126.68000061235973,35.107540501897056],[126.67989261187459,35.10738514115442],[126.67962474201053,35.107183174570515],[126.67937799746247,35.107020663476106],[126.67933997724529,35.10702417248432],[126.67935004446097,35.10697712247752],[126.67924619073217,35.106880598788074],[126.67923840889198,35.10667572660452],[126.67916908423669,35.106528963247015],[126.67907150996388,35.10636435963972],[126.67899847154465,35.1063143294027],[126.678948641853,35.1062420248038],[126.6788530321732,35.106152491560636],[126.67882510639066,35.106079930415426],[126.67884599258734,35.106057172403],[126.67884222157305,35.10598702821501],[126.67875247300334,35.105841133460316],[126.67863707153282,35.10594761927585],[126.67849295681708,35.10600895631321],[126.67847856063385,35.10597454017809],[126.6784337320827,35.10596627620169],[126.67828325950124,35.10600435030843],[126.67822095528086,35.1059915837472],[126.67815512721795,35.10596007674625],[126.6781124705854,35.10591865395363],[126.67808171920097,35.105914929748735],[126.67808331092056,35.10589770009953],[126.67804848873394,35.10586687484267],[126.67801682336737,35.105874953044534],[126.67778492818827,35.105845202436555],[126.67772854432675,35.1058245192058],[126.67753240107206,35.105635079374075],[126.6774985331709,35.105584549344414],[126.67750171208935,35.105534739901735],[126.67731147552487,35.10546156182634],[126.67730507848417,35.105378589366794],[126.67722877404042,35.105380896531706],[126.67723805113849,35.10528905517684],[126.67707155004194,35.10525747722823],[126.67666597605188,35.10504215112074],[126.6762457978883,35.10484208663588],[126.67570808632584,35.10495971258953],[126.67512902903529,35.10492969956452],[126.67498031174189,35.10505876180816],[126.67331653736557,35.10513595616662],[126.67314783215889,35.10496979786728],[126.6729151534463,35.10489042579357],[126.67243955821502,35.104672719728995],[126.67053882326611,35.1047658944559],[126.66932198367356,35.10455943741438],[126.66855615037925,35.10474629828888],[126.6681586572992,35.10502504580215],[126.66748587266473,35.105109937011015],[126.66753985092166,35.105592857496916],[126.6671808393722,35.10604365073789],[126.66704624699265,35.10636314002424],[126.66700720686102,35.10642060554864],[126.66698233686553,35.10653929619053],[126.66790226327966,35.10668915681658],[126.66803181088034,35.10684571923554],[126.66843830141035,35.10753101984541],[126.66896076082641,35.107875555413905],[126.66908949659017,35.10903826549499],[126.66906145717772,35.110306153771184],[126.66906615266566,35.111261967216],[126.66927008817264,35.11206813467347],[126.66793732251458,35.11192304689773],[126.66784516655841,35.11201005994709],[126.66688296271151,35.112287967591314],[126.66656993400777,35.112429022327284],[126.66633067302166,35.11271057595322],[126.6661371080492,35.11312568777199],[126.66597587860932,35.113418384942435],[126.66532460266174,35.113942436691964],[126.66514706699363,35.11397881923933],[126.6650494302217,35.11405020655821],[126.66448520730042,35.11412480406488],[126.66385644843143,35.114545411808884],[126.66339788179602,35.11481570454471],[126.66258960803324,35.114694973289375],[126.66220391046191,35.11446207848997],[126.66151167687525,35.11410591169711],[126.66117919732025,35.11397029947388],[126.66087714244566,35.11382574747352],[126.66056783431368,35.11383459481368],[126.65994915155558,35.113542185025466],[126.65973895343042,35.113563558118756],[126.65821568232045,35.113513620436564],[126.65754368552012,35.11325848021761],[126.65707835295781,35.11328782344777],[126.65704263962738,35.11330031332711],[126.65678163438646,35.11346461975115],[126.65627772902327,35.11383806829113],[126.655194618728,35.11485319023829],[126.65475663528407,35.114462350523326],[126.65513330379282,35.11482020272818],[126.65511103674623,35.114991804825365],[126.65511066025456,35.11566135425556],[126.65517905923198,35.11605164889648],[126.65529231045994,35.11694465837276],[126.65501296917954,35.11747474913313],[126.65488123275429,35.11778811675016],[126.6544514632299,35.11803403815709],[126.6536199400503,35.1184341010693],[126.6526941159146,35.11864990262737],[126.65248797354631,35.118956371474454],[126.65193678930228,35.11951794335947],[126.65159289634218,35.12049327628824],[126.65248841195097,35.12175813451694],[126.65257747314998,35.122010501641576],[126.65230486112725,35.12276525848978],[126.65222942210237,35.12340602784177],[126.65197536561672,35.12387547749331],[126.65184583275449,35.12454080875975],[126.65173589081235,35.12469721220906],[126.65185394738552,35.12490129254154],[126.65217398387324,35.12554506024717],[126.65268731754385,35.12598985967345],[126.65311997356517,35.12652265917751],[126.65303471879281,35.126835653802075],[126.65309986536623,35.12697060985481],[126.65326176653795,35.12778276312817],[126.65323786394372,35.1282467350887],[126.65332689072235,35.12868051658392],[126.65357890404859,35.12932017401949],[126.65354680038003,35.129648968856955],[126.65360090603889,35.130497874913814],[126.65385538070599,35.13089633410771],[126.65401610940496,35.13107619123625],[126.6541570308974,35.13119043721203],[126.65371644323915,35.131871101023336],[126.6535155396289,35.132093642540575],[126.654051541124,35.132951016331525],[126.65445108966689,35.13347000654394],[126.65451389860812,35.13397123031511],[126.65447640566909,35.134246445189994],[126.65454421162147,35.13467059565541],[126.65457413526605,35.135606420232826],[126.65461641028274,35.136075163212325],[126.65467923162058,35.13661572158318],[126.65479064632494,35.1369350006709],[126.65485140452957,35.13703617209971],[126.6548410739096,35.13710408569901],[126.65456681498591,35.13715153292679],[126.6541017653272,35.13738677018105],[126.65386830364378,35.137988013930105],[126.65369188698884,35.138994200587085],[126.65321020910774,35.139479944628505],[126.65309204586484,35.14013611347625],[126.65297271122274,35.14062362641019],[126.65279623685315,35.1409135527975],[126.65279942814949,35.141059441973134],[126.6529138432248,35.141822984131515],[126.65291253164887,35.142982135479755],[126.65300463287178,35.14316188636828],[126.6533274790645,35.143922156773876],[126.65176402245346,35.14396537479243],[126.65091507746968,35.14425613143731],[126.65050793328808,35.14424487578094],[126.65046058305768,35.144231831798315],[126.65037549934576,35.1441439201813],[126.6499251633561,35.144030585175805],[126.64943629838837,35.14397930369044],[126.64913575198068,35.14397039937258],[126.64870259491671,35.14391760895169],[126.64838693374072,35.14400545419679],[126.6476811697317,35.1440753879087],[126.6476556745144,35.14400872164753],[126.64729821984645,35.14419006551138],[126.64712135457961,35.14433831710929],[126.64683306065781,35.144621173354686],[126.64567521077967,35.14589236141575],[126.64507869746188,35.14642222578822],[126.644981612037,35.146552085347274],[126.64471857739733,35.14657934444025],[126.6447052724146,35.146609643725114],[126.64468330108721,35.14661102149972],[126.64468289144821,35.14667240073691],[126.64552900395464,35.14666132443713],[126.64675021618496,35.14688067027291],[126.64789301053708,35.14695374765792],[126.64863092628181,35.14706499778649],[126.64909105770812,35.14717007214036],[126.64927735831506,35.14727262101252],[126.65015706327077,35.14764161761883],[126.65055508960207,35.14796100956005],[126.65088130474727,35.148311019640275],[126.6509645407977,35.14862356096462],[126.65093230605608,35.148804549187375],[126.65083976931841,35.14872088855167],[126.65071633581113,35.14936477110422],[126.65061511478947,35.15012028022681],[126.65122935066545,35.150663748363826],[126.65118300967737,35.15071472658801],[126.65127162558828,35.15080952015718],[126.65184891032011,35.15106361793246],[126.65219196694778,35.15139032008244],[126.65251968862113,35.15180855255233],[126.65302861438207,35.15228123346509],[126.65352228060702,35.15288497868743],[126.6535783879655,35.15309811041776],[126.65294198762508,35.153584678625755],[126.65177806297693,35.15425144233811],[126.65142644395529,35.15487990892882],[126.65174257390504,35.155602598003654],[126.6522332408755,35.156122090696776],[126.65304145066887,35.1564528333795],[126.65341183816484,35.15701250806645],[126.6537029404451,35.15750585871038],[126.65444829068566,35.15822746988589],[126.65471115727303,35.15838896873571],[126.6549882259397,35.15859748627545],[126.65535521511232,35.15884499964298],[126.65522548843515,35.1595989578364],[126.65430671801973,35.1600787399302],[126.65411415102346,35.16028799530468],[126.65398833393509,35.16053644307201],[126.65367166846278,35.161277470932475],[126.65415657804508,35.162276799386994],[126.65414752400144,35.163039068874085],[126.65398971522563,35.163789232193295],[126.65395799001661,35.16415550159005],[126.65424350776544,35.164526217756396],[126.65473501637915,35.16493384454342],[126.65491576249694,35.16512794383154],[126.65509737709853,35.1652028072121],[126.65553053425558,35.16549590096309],[126.65580058961476,35.16580084902953],[126.65709221180417,35.166551194539515],[126.65836292262875,35.16675562914672],[126.65853587403886,35.16674913297465],[126.65868313264518,35.1667236904162],[126.6589552053317,35.166624589948704],[126.65905854560428,35.16655711916652],[126.65961127104079,35.16637767190104],[126.66071067290302,35.166611711158666],[126.66156941594048,35.16652260030878],[126.66257733620458,35.16638924824498],[126.66251890266597,35.166744774875966],[126.66260054269948,35.167018283700614],[126.66276583143005,35.16734555633224],[126.66347018167676,35.167808715484036],[126.66363288799809,35.16795500692043],[126.66415180605755,35.16831224185374],[126.6643693410188,35.168384360083095],[126.6646155177003,35.16841611488665],[126.66479842899136,35.16841999377549],[126.66540216226805,35.168664771818015],[126.66593879033911,35.16880202036982],[126.66537438617782,35.16910416344312],[126.66484277237048,35.16936143748726],[126.66446763844093,35.16948937432843],[126.66480702502301,35.169506200176265],[126.6647645308994,35.16943475424937],[126.66491749392418,35.169381486775045],[126.6649531018002,35.16940309139835],[126.6650567540236,35.16937705106205],[126.66527874321199,35.16927467876378],[126.66543154778826,35.16918516535235],[126.66589949978791,35.16899027535735],[126.66607794019723,35.16888560896747],[126.66614282699223,35.1689037341223],[126.66622022351052,35.16883965562788],[126.66746888845846,35.16890679321762],[126.66771873014359,35.169068182578215],[126.66799257850357,35.16907659024571],[126.6680993479798,35.16911739000247],[126.66861052689492,35.16924995887322],[126.66892466265055,35.16940311460305],[126.66935826440776,35.16941297401098],[126.66934527867915,35.16946702854756],[126.6694892136235,35.16950889345739],[126.66961374281955,35.16952302543736],[126.66973999426615,35.16951886395092],[126.66975233916374,35.16943870565438],[126.67022572311394,35.169464030750426],[126.67053486997352,35.16945475344956],[126.67080321371692,35.16993661717963],[126.67145823829013,35.17083660416248],[126.67144084654193,35.17131218161396],[126.67156521192157,35.17151587128082],[126.67160207447377,35.17180891021716],[126.67199637269621,35.172076321362425],[126.67208009953364,35.172382917975206],[126.67201509099402,35.17253416741199],[126.67202108274,35.17262432916082],[126.67206542985429,35.17264165223082],[126.67211894050206,35.172714088878074],[126.6720885435717,35.17272722517513],[126.67206148818984,35.17276853315357],[126.6720592501511,35.17288419553408],[126.6721305900204,35.17311918441944],[126.67182578162674,35.173432716228035],[126.6715703222677,35.17375922099862],[126.67131063397966,35.17447768089875],[126.67089382191546,35.17487529976596],[126.67052517419619,35.17508857989465],[126.67014046761085,35.17510361778943],[126.6688220604831,35.17487571331865],[126.668496663842,35.17492395180481],[126.66824847773249,35.17543875866695],[126.66798155278605,35.17579702171634],[126.6673755712456,35.17635023003381],[126.66712182814425,35.176726642464054],[126.66684398317804,35.176862131303125],[126.66642190845957,35.17754869465821],[126.66609949941058,35.17779216382955],[126.66567237239549,35.17804725218041],[126.66515334385397,35.17882453234714],[126.66510574558781,35.17919978401744],[126.66422996716933,35.17958116000032],[126.66365851323597,35.17987942850016],[126.66321733125505,35.18011477402991],[126.66310614777608,35.18022486885403],[126.66268861884785,35.18047646551829],[126.66270753229213,35.180662421749616],[126.66260825893485,35.18096032735657],[126.66276084503929,35.18159353613188],[126.66308553611398,35.181709707169524],[126.66327872535538,35.18183688558209],[126.66369987537038,35.182295618447135],[126.66335221137727,35.18256463780378],[126.66293831748897,35.182937576477826],[126.6627139975199,35.18327203400988],[126.66236200553028,35.18362174468257],[126.66185967332466,35.18397502516835],[126.66173266440244,35.184195444645056],[126.66169440778562,35.18441325572387],[126.66178735102918,35.18475737930516],[126.66126769248439,35.18529052780215],[126.6602428297774,35.18568083837179],[126.65952036981828,35.18585501376208],[126.65922554053611,35.18604306743805],[126.65854690726503,35.18612241362114],[126.65792540885826,35.18635035936766],[126.65752651347111,35.18680939125371],[126.65737640873976,35.18732464266894],[126.65703694014026,35.18766797384011],[126.65673386621218,35.18778525032346],[126.65635262579664,35.18813200267819],[126.65593173136176,35.18841483482955],[126.65540259942817,35.189047991932426],[126.65543949736673,35.18937171149064],[126.65538828499024,35.18959787506451],[126.65513572057894,35.1898516474802],[126.65489430752258,35.18997707321725],[126.6548908466955,35.190044943062446],[126.65475889548598,35.19016563479828],[126.65475612731629,35.190528038669946],[126.6546133586897,35.19081197647875],[126.65430598512876,35.190827569137],[126.65407454746922,35.19097507201884],[126.65398002575135,35.191526333295776],[126.65334433293125,35.19236956290022],[126.65282184062853,35.19252466521261],[126.6527040985664,35.192623185172685],[126.65193244773616,35.192979587997314],[126.65108692592025,35.193177711548834],[126.65107854481592,35.193222244189585],[126.65113620018609,35.19319541704472],[126.6519174243773,35.19302274187758],[126.65259736972992,35.19269243052858],[126.65318362750659,35.19251401940351],[126.6533371313679,35.19259044361058],[126.6534747168551,35.19273574044044],[126.65390456350286,35.192941506680384],[126.65400815247017,35.193082558294435],[126.65446651237772,35.19334667573207],[126.65479943268878,35.19343340991194],[126.65493395944246,35.193487947472164],[126.6552437524095,35.193625189968245],[126.65545959359966,35.19378451419329],[126.65598052685513,35.193874756336996],[126.65627327672111,35.19410121699163],[126.65669732627748,35.193764456634995],[126.6570025502961,35.193429105589885],[126.657659828813,35.19318962102904],[126.65829583299211,35.19289313391412],[126.65885355536332,35.192385020304236],[126.65908854712211,35.192251824637395],[126.65951088063156,35.19259716970006],[126.65980639892143,35.19270163984597],[126.66014436990211,35.193017703110776],[126.6607755748296,35.19330009494805],[126.66091144854103,35.193390656547514],[126.6617164293926,35.19370004193143],[126.66194814503302,35.19373902501613],[126.66240568276275,35.19374283889457],[126.66277003648928,35.19365545533827],[126.66307911233136,35.19349323879003],[126.66296578790373,35.19318471632651],[126.6630132509154,35.192952510308636],[126.66318216940573,35.19267661220565],[126.66333349929845,35.19252721205455],[126.6634922463187,35.192474665820285],[126.66373755500653,35.19245753115536],[126.66385618264688,35.192417597841235],[126.6641923630015,35.1923758470466],[126.66435001453398,35.19240788711883],[126.66443788476577,35.19248268212339],[126.66462039559391,35.192530194930804],[126.66472286315998,35.19257739433192],[126.66490542881675,35.19258770815636],[126.66518441177845,35.19256024406735],[126.66528330008863,35.19253269494458],[126.6653799523352,35.19256310404271],[126.66550684151605,35.19265024614227],[126.66559079756433,35.19266828936303],[126.66571575846078,35.192738120070096],[126.66580974220643,35.19283029015994],[126.66591659134987,35.19287232865118],[126.66591648804774,35.19291412938778],[126.66601684862196,35.19296599440265],[126.66605893679869,35.19301627987428],[126.6661059681793,35.1930342920672],[126.66619813335421,35.193106503202664],[126.66631738289121,35.193131790497695],[126.66637782946034,35.19317710593258],[126.6665821379772,35.193232563603935],[126.6667850558485,35.19334614377289],[126.66682038802729,35.19324498359579],[126.66696050362944,35.19309778388731],[126.66771258855327,35.19269367763725],[126.66782360055907,35.19270866551524],[126.66809738288659,35.192636942227544],[126.66812927817546,35.19264279956034],[126.66817046067825,35.1926675009393],[126.66822231015375,35.192745303566085],[126.66840518398021,35.192849524548166],[126.6684425081204,35.192921635993656],[126.66844432510685,35.192998362780145],[126.66866675244555,35.19319361029195],[126.66897265307345,35.1935021244372],[126.66924081330468,35.193884075273225],[126.66927242913131,35.19388841556276],[126.66960269531934,35.19437333374419],[126.66963831870066,35.1944615200813],[126.66977944960634,35.19433937013356],[126.6702812662997,35.19413963325443],[126.67076776812725,35.194036235247246],[126.67076838222034,35.194076870202345],[126.67082435356873,35.19401053070939],[126.67119152775163,35.193726149409706],[126.67129843953157,35.19369697586313],[126.67163104438258,35.19388003455174],[126.67182891063187,35.19396621919411],[126.67210430613605,35.19420782655871],[126.67249703177193,35.193892791019955],[126.67275754435175,35.19329639411886],[126.67291289812302,35.19289078697393],[126.67325938743227,35.192990685400524],[126.67370570084576,35.19293426106334],[126.67378003612964,35.19259220419948],[126.67389694648597,35.192314454554825],[126.67393837750144,35.1921272590889],[126.67436433898877,35.191207821628716],[126.67448163394975,35.19147981679661],[126.67451529189378,35.19148128369388],[126.67439254952865,35.19119582860308],[126.67481550196597,35.191083536581765],[126.67516364834914,35.19102059670421],[126.67559807808337,35.19082730157247],[126.67570490442408,35.190710359880256],[126.67592993507569,35.19062216389928],[126.67710899247666,35.19096749523518],[126.67711177388698,35.191037934942976],[126.67713126389378,35.19103814835715],[126.67717023548195,35.19110606021541],[126.6771671040636,35.191229691065274],[126.67719627853636,35.19137992356099],[126.67725995919288,35.191507498193886],[126.6772739097396,35.19217854692789],[126.67713340298424,35.19267404786673],[126.67717406127662,35.19275743403148],[126.67739234674954,35.19291708772707],[126.6775114950278,35.19295492919915],[126.67757391816284,35.19304832218554],[126.6776134848385,35.19316619753132],[126.6776394102606,35.19337245014336],[126.67768150647746,35.19348439212945],[126.67771483849111,35.19391786944865],[126.67765110604107,35.19409023444701],[126.6774526896009,35.194497994295084],[126.67717744774382,35.195265703248346],[126.6770619248467,35.19547581749899],[126.67658885135421,35.19597623330699],[126.67650703530572,35.19621629296416],[126.67649495031424,35.19657118585051],[126.6768794873181,35.19700711294084],[126.6771286009421,35.19719858513734],[126.67733501515384,35.19743630802337],[126.67749992066898,35.197735428259854],[126.67790264058054,35.19834362261459],[126.6780207371047,35.19878748079162],[126.67812053390853,35.19942728109701],[126.67809613791412,35.19957823217397],[126.67795078573462,35.20000155585034],[126.67780552547806,35.20033483698199],[126.67773304732002,35.2005874958935],[126.67761998613621,35.200770176338615],[126.67753898268369,35.2008691746431],[126.67740199450989,35.20113718269079],[126.67735774436001,35.201394794822036],[126.67741070818255,35.20158023950722],[126.67743311107755,35.20180239010671],[126.67749633690494,35.20205655798483],[126.67756657266386,35.20251021081955],[126.67772048542918,35.20285394420682],[126.67805869242295,35.20316328867549],[126.67878128416278,35.20368718393281],[126.679023447124,35.20374291897096],[126.6793711471211,35.20373620058336],[126.67964980219826,35.20377538334743],[126.67999484160823,35.20405683280094],[126.68037785477725,35.20476561032086],[126.68063616220974,35.205196361975176],[126.6807708885685,35.20577392925104],[126.68095093334023,35.20640887939642],[126.68055655686285,35.206851673472144],[126.68047167738717,35.207003012580955],[126.68043833212649,35.20741308657544],[126.68066439073932,35.20753787280424],[126.68066774226591,35.20752642428534],[126.68079741685455,35.20761329606182],[126.68080009568502,35.207811446192856],[126.68068955173544,35.20799276402252],[126.68074248797758,35.20808700535935],[126.68086794309119,35.208180283811906],[126.68100615268878,35.20836783991435],[126.68111736562702,35.20844419007119],[126.68121325803361,35.20847866700374],[126.68139003666465,35.20844213510146],[126.68158888847127,35.20836117930093],[126.68169677251541,35.20836521317008],[126.68182905090703,35.20842428545609],[126.6819575897525,35.208454224232874],[126.68212118914725,35.20846576014907],[126.68257163999826,35.208601265606816],[126.68271412042428,35.20875075885843],[126.68288175269079,35.208815347993585],[126.68301069809196,35.208833975897875],[126.68344462133084,35.209038062144465],[126.68390258543734,35.20940601107354],[126.68418145141811,35.20956563883999],[126.68422371242475,35.20963893910479],[126.68454397169253,35.20983829803556],[126.68462384636332,35.21007565916226],[126.68463278409833,35.21030221735805],[126.6845036979398,35.21087858486281],[126.68452987165757,35.210934581578],[126.68460980723412,35.210992449793274],[126.68470288557049,35.21110510789234],[126.68466132836167,35.21113530115954],[126.68485151272328,35.21115301596476],[126.68499032254287,35.21195359075005],[126.68523570797083,35.21216273919299],[126.6853399275953,35.212569174751074],[126.68563261979699,35.212902839238104],[126.68557837101127,35.21325364594768],[126.6855904961709,35.21334362967669],[126.68567122823555,35.21360831223201],[126.6859432908545,35.21389585503182],[126.6861117542375,35.21423446813401],[126.68665365457927,35.214825338152785],[126.68706579264308,35.21520960413121],[126.6871384595375,35.21516057081581],[126.68792434893918,35.214949080739544],[126.6879312731399,35.21500449613164],[126.68793233916129,35.214833540566595],[126.68798276149681,35.21475066528995],[126.6882158177093,35.21468845411035],[126.68823611623223,35.21466496345519],[126.68845334465043,35.2145458361359],[126.68868149276032,35.21443728168192],[126.68869056055645,35.214481102863665],[126.68874076841813,35.2144628619709],[126.68876327862563,35.21473906354618],[126.68882798629467,35.214889025692976],[126.68902958215955,35.21476789275462],[126.68904684097751,35.21469782958041],[126.68916768755145,35.214565752775066],[126.68922954159855,35.214741438614645],[126.68932997524844,35.214865939119285],[126.68932779077733,35.21491013999817],[126.68939589207447,35.214950311725204],[126.68943900031101,35.21501030790973],[126.68949994130367,35.215017306303565],[126.68972269626283,35.21496873873711],[126.68986958020885,35.21496408712631],[126.69021564271185,35.215001445348506],[126.69043027457681,35.214995354468186],[126.69044348388735,35.214938640458335],[126.69049617805608,35.21485554667697],[126.69064374419607,35.21452912410819],[126.69063930502887,35.214501920868855],[126.69069050666248,35.2143811907352],[126.69082443947173,35.21419747204268],[126.69101351436468,35.214095374936036],[126.69122677464561,35.21401907301583],[126.69131288407343,35.213971794171826],[126.69143961091913,35.21382848781283],[126.69145595084657,35.21371140438124],[126.69127232949572,35.21350834548117],[126.69151954631846,35.21310549216411],[126.69168502444752,35.21307068310905],[126.69183016432936,35.21305519095235],[126.6918387010849,35.213065839096096],[126.6921392409422,35.212872247771834],[126.6921363189421,35.212852531681555],[126.69243559137973,35.212596358663326],[126.69264966726658,35.21250317472076],[126.69278293167486,35.212485325471455],[126.6931560662647,35.212256325666154],[126.69332391699966,35.21209582662621],[126.69342048192489,35.21186744628033],[126.69358900845448,35.21173968693631],[126.69369575011622,35.211607992114004],[126.69379718248723,35.211533213906215],[126.69395553371277,35.21148518698245],[126.69420125782966,35.211496599633385],[126.69453875991745,35.21134855301951],[126.69472217792183,35.21129614556576],[126.6950268144329,35.21113157384304],[126.6950382379867,35.21113973428201],[126.6952163690279,35.21086316507316],[126.69533079641292,35.210602533240056],[126.69547603106123,35.21048170633014],[126.6953013113293,35.210496470702175],[126.69530951250589,35.21047979809465],[126.69551591905426,35.21044660107214],[126.69554900920197,35.21041722050089],[126.69564769886297,35.21037558367015],[126.6958488457391,35.21033626116767],[126.69601437294568,35.210253818665784],[126.69619865349296,35.210131835411694],[126.69660620167943,35.20977534515654],[126.69673463830568,35.20961065016302],[126.69679403024573,35.20946671089272],[126.69693996801107,35.20929480469351],[126.69697454384844,35.209311259811585],[126.69700392017555,35.20926452655534],[126.69760326161202,35.20934804478237],[126.69802967563022,35.20948199099562],[126.69852874574241,35.209466665170225],[126.69931576028385,35.209213596123305],[126.69986158124331,35.20893891171206],[126.69988167818074,35.20848765914326],[126.70009876402675,35.208463556985144],[126.70124427939666,35.20823291741163],[126.70260072332577,35.20756465537935],[126.70294836089556,35.207680866736716],[126.70336573942281,35.20828019735333],[126.70379088280532,35.20859198198008],[126.70417851386857,35.20859679102609],[126.70431523796553,35.208648971995665],[126.70458734267126,35.20872126979273],[126.70524441904422,35.209237608558844],[126.70536398862,35.2096628834974],[126.70552575944212,35.20994676090462],[126.70586148885383,35.20994698519985],[126.70620926141272,35.21024860313194],[126.70709721629217,35.210127731478885],[126.70774679542158,35.21042826628693],[126.7096252838799,35.21167949884645],[126.70994230981857,35.21191812656423],[126.71068555722027,35.212300298412835],[126.71137081794737,35.212189491930694],[126.71184084697666,35.21207652497709],[126.71242992098327,35.21219775493501],[126.71297374184131,35.21216863326031],[126.71319997891115,35.212113937851626],[126.71377983760003,35.212270239083324],[126.7141687522795,35.21246446385912],[126.71436097889007,35.21243744722883],[126.7144880353491,35.212347189865305],[126.71502014069539,35.21207343187574],[126.71568391903581,35.21210793572438],[126.71656926217233,35.21228388156821],[126.71726242138331,35.2124571440142],[126.71764934888962,35.21243918666561],[126.71852342400548,35.2132157645143],[126.71855531971215,35.213551038880496],[126.71834774381725,35.21419023710657],[126.71832412932298,35.214836696937105],[126.71884275008362,35.21570597329313],[126.71988409947527,35.21583782283584],[126.72018032423944,35.21607013765233],[126.72011037551273,35.216961458365674],[126.72028945043434,35.21747881143544],[126.72057199826996,35.21780422798467],[126.72050712698375,35.21854913538165],[126.72073555326986,35.21882480896881],[126.71994978309635,35.21971127687588],[126.71966608922858,35.22041328343949],[126.71912111380504,35.22135703413271],[126.71842995321062,35.22181904557297],[126.71873038583932,35.22267112590967],[126.71907428155741,35.223318937954765],[126.71917322358495,35.22344361707156],[126.71930159715012,35.22368760269922],[126.71971130611686,35.22453648511598],[126.71985352236584,35.22515881243496],[126.72001864696236,35.225284122046595],[126.71982287673228,35.22618219657146],[126.71985074803386,35.22679492355744],[126.72042409849261,35.227053818368645],[126.72062469494952,35.227249947382894],[126.72132995210416,35.22749038251036],[126.7216483799934,35.227799981643635],[126.72185626760377,35.227719240807474],[126.72214696859429,35.22771236832249],[126.72249189456434,35.22817334311619],[126.7227677351094,35.2284588550374],[126.72321652369423,35.22872480976542],[126.72407424341667,35.23019411429169],[126.72352809896546,35.230699706997406],[126.724103249959,35.231712588193396],[126.72413707949718,35.23232980698259],[126.72466880924506,35.23255870847634],[126.72491335234011,35.232734397528],[126.72499273274077,35.23324550287558],[126.72488561582557,35.233667014273095],[126.725177993772,35.234224033282224],[126.72548817674335,35.23467713156641],[126.72566559020778,35.234928397639436],[126.72639303657138,35.23506018733986],[126.72644544103748,35.235176605642266],[126.72632741646657,35.23580109332998],[126.72674941448642,35.23609599615701],[126.72703093150533,35.236502498676494],[126.72791638266818,35.236333085276925],[126.7291025682023,35.23726835734946],[126.72937019186506,35.23776395665911],[126.72934577874052,35.23809230162031],[126.72959928045235,35.23875006806613],[126.72994524711578,35.23904037132184],[126.7301144980084,35.23994158541956],[126.73040891508806,35.240610857794564],[126.73040310329804,35.24065884005419],[126.73041890336995,35.24065657882113],[126.73043450870979,35.24070861126243],[126.73036142587847,35.240791136337876],[126.7303196981566,35.240873317063546],[126.730272044812,35.24116199909228],[126.73019667079866,35.2413717700048],[126.73014400537912,35.24168714769437],[126.73015072165228,35.24209255809781],[126.73011724873363,35.24221992306051],[126.73003838226911,35.24238619221617],[126.7300614610692,35.2425722668387],[126.73001845042786,35.242658140260616],[126.73002259040065,35.242733789149554],[126.72996729342324,35.242960784348945],[126.72997076493009,35.24307314861378],[126.72990329413419,35.24329451468239],[126.72989557293891,35.24338046725639],[126.72994007771062,35.243459857230135],[126.72996429351944,35.24359758249709],[126.73008054646606,35.24376564515975],[126.73018298093463,35.24385031265852],[126.73063672343869,35.24411304971526],[126.73076634180688,35.24422754850617],[126.73092616445096,35.244417565484],[126.73097132511234,35.24441963959587],[126.7310553043829,35.244341961456215],[126.73129703927069,35.24463007281211],[126.73139022094938,35.24482195072517],[126.7313976911857,35.24487860746351],[126.73151286949091,35.245020815254485],[126.73156969963814,35.245125317487144],[126.73167239603417,35.24519817608346],[126.73185574942038,35.24529124287419],[126.73187474755858,35.24535047581557],[126.7317905024228,35.24546901246345],[126.73178184833021,35.245520702254055],[126.73184652440703,35.24571800549573],[126.7318559628836,35.24580084055168],[126.73212684219878,35.24614954147413],[126.7322379843619,35.24623390091027],[126.73239374953818,35.24639734382757],[126.73238904478895,35.24642770872276],[126.73232639086979,35.246485723941525],[126.73233385100315,35.2465157827866],[126.7327986961186,35.24690670642945],[126.73294730890001,35.24705385501248],[126.73293269722933,35.24719337764383],[126.73299691452242,35.24722473303394],[126.73312395165686,35.24735112052183],[126.73313520609321,35.24739358973924],[126.7334904020475,35.2476050370322],[126.7336038496274,35.247797743070954],[126.73369697710147,35.24788559380034],[126.7337256774441,35.24797868464615],[126.73383446542714,35.248065327896384],[126.7339695361231,35.24814188802465],[126.73410014791249,35.248371883918715],[126.7343471884634,35.2486374942426],[126.73472870601319,35.249165229831654],[126.73477672254288,35.249269106738176],[126.73499898397871,35.24941579426284],[126.73518221347457,35.249446338175176],[126.73527761402397,35.249485061399106],[126.73553401858992,35.24985294651179],[126.73564591466024,35.24997839713655],[126.73574661190791,35.25013471266682],[126.73584036124917,35.25024221327642],[126.73598675648257,35.25047662943076],[126.73621230008959,35.2506530827739],[126.73631505842899,35.250771266172414],[126.73647331620965,35.25152419359818],[126.73649877066555,35.25162348667266],[126.73655097773607,35.251720331849825],[126.73661988172316,35.25175483290207],[126.7368110802743,35.25173548511471],[126.73703771069937,35.2518394451162],[126.7371514592388,35.2519339549626],[126.73719377640332,35.25207891877136],[126.73717513489797,35.25220233498216],[126.73724924416632,35.252579967511636],[126.73724362459804,35.25288297578043],[126.73738501003223,35.25281476487562],[126.73770669408242,35.25276192634321],[126.73776163688534,35.252727164643495],[126.73781881974146,35.252713318863066],[126.73802412223155,35.25273332525463],[126.73808853470203,35.25272652460921],[126.73812954523697,35.25268488176376],[126.73810425024483,35.25258991629784],[126.73826812391971,35.25250897175496],[126.73835183516857,35.252446601103074],[126.73836882807991,35.25239066415444],[126.73834831595374,35.25227768261871],[126.7383849723204,35.25208676894758],[126.73866027888292,35.25200137925802],[126.73869849287557,35.251974963316556],[126.73864143073688,35.2518150322332],[126.7387724170804,35.25177818139711],[126.73888390821242,35.251789600057236],[126.73909090800058,35.25175985429747],[126.73946925600933,35.251681446730956],[126.73953904873873,35.25157289568771],[126.73968695888384,35.25146658740269],[126.73991123064259,35.25136170535893],[126.7404420357431,35.25116257502404],[126.74109636444024,35.251049333856],[126.74178344396516,35.2508158415944],[126.74209246454834,35.2514275187849],[126.7423403640498,35.251865804424796],[126.74257691307268,35.252119464323386],[126.74252231170276,35.25193932855552],[126.74307409274031,35.25175640935829],[126.74341331269703,35.25158394920239],[126.74360984930009,35.25165122139884],[126.74400146498007,35.25172276435285],[126.74438553553772,35.252078797644934],[126.74462612818884,35.25217006288479],[126.74472229452216,35.252218903030275],[126.74487511095136,35.252328263935944],[126.74494462559835,35.252355080863175],[126.7450420401707,35.25235718814814],[126.74514057716594,35.252414181318144],[126.74525010549046,35.25240381351444],[126.74533545698111,35.25235589945411],[126.74534245074746,35.25233686892647],[126.74577397540064,35.25226991891542],[126.74615734195466,35.25246493910597],[126.74727003407976,35.25294139399892],[126.74740910864942,35.25286804622972],[126.74792271282206,35.25306696713763],[126.74838948135442,35.25333825507975],[126.7486868152882,35.253885628901564],[126.74898378972514,35.254326776403566],[126.74908685587376,35.25456236682975],[126.7491415651703,35.254814764689236],[126.74938447325253,35.25541155821056],[126.74944999190258,35.255952499424225],[126.75035376944065,35.25618373088316],[126.75051097722968,35.256535351832106],[126.75089752568367,35.25658808896866],[126.75141004041384,35.25674733432522],[126.75168380689793,35.256767214562814],[126.75193129866973,35.25688002299677],[126.75224195582649,35.25688156444343],[126.75267052577088,35.256992668879576],[126.75413990671386,35.25667219256882],[126.75502846762579,35.256585880711405],[126.75539247141138,35.25694408201557],[126.75573961259124,35.257152509508636],[126.75606729900527,35.25740317914196],[126.75609348424535,35.25764233810973],[126.75686161747768,35.25774782580442],[126.75707502411686,35.257940322223035],[126.75787167788857,35.25850724800234],[126.7583691044859,35.25843586141181],[126.75892193402564,35.258505896207815],[126.75949536250648,35.25872225659196],[126.76023051515973,35.25880943204907],[126.7611369922988,35.25865724150324],[126.7621750339676,35.257604301163155],[126.76300763959628,35.25693355559038],[126.76338232411024,35.256518884554545],[126.76331105231678,35.25640224654335],[126.7635539143859,35.25543099327321],[126.76388496197623,35.254943145642834],[126.76381276563224,35.25411800925861],[126.763658694727,35.253400890733914],[126.76341017559822,35.253050674616695],[126.76307038422584,35.25274840903471],[126.76254609451455,35.25235560845257],[126.76208396775436,35.252188137066476],[126.76214910855875,35.25175328904148],[126.76161199670906,35.251300809595016],[126.76137527091117,35.250928511424775],[126.76139245880164,35.249380893314104],[126.76107470389991,35.24854035154789],[126.76074675310323,35.24743400918789],[126.7606098959909,35.24723264893822],[126.76025473884427,35.24681771370398],[126.75965846882615,35.2462323301185],[126.75933820994885,35.24568634419193],[126.75896687090875,35.2454039778321],[126.75849124431629,35.24528778710884],[126.75783793825627,35.2447630754354],[126.7570970795705,35.243968917737845],[126.75671619308882,35.2436477315768],[126.75554899131005,35.24333823504406],[126.75534342585651,35.24245474007092],[126.75523835249159,35.242250317471346]]]}}]}
